{
  "type": "FeatureCollection",
  "features": [
    {
      "type": "Feature",
      "properties": {
        "Name": "City of Westminster",
        "FIPS": "0883835",
        "State": "Colorado"
      },
      "geometry": {
        "bbox": [
          -105.165554,
          39.818239,
          -104.987807,
          39.968528
        ],
        "type": "MultiPolygon",
        "coordinates": [
          [
            [
              [
                -105.038164,
                39.857482
              ],
              [
                -105.034377,
                39.857481
              ],
              [
                -105.034369,
                39.856263000000006
              ],
              [
                -105.037624,
                39.856298
              ],
              [
                -105.038164,
                39.857482
              ]
            ]
          ],
          [
            [
              [
                -105.165554,
                39.890898
              ],
              [
                -105.164423,
                39.891408
              ],
              [
                -105.14744,
                39.889297
              ],
              [
                -105.134852,
                39.889292
              ],
              [
                -105.133555,
                39.890785
              ],
              [
                -105.131433,
                39.889176
              ],
              [
                -105.130209,
                39.89058
              ],
              [
                -105.12889500000001,
                39.890353
              ],
              [
                -105.128943,
                39.892801
              ],
              [
                -105.128943,
                39.893036
              ],
              [
                -105.12867800000001,
                39.899985
              ],
              [
                -105.128918,
                39.900255
              ],
              [
                -105.12841800000001,
                39.906459
              ],
              [
                -105.127815,
                39.907132
              ],
              [
                -105.123352,
                39.907074
              ],
              [
                -105.120094,
                39.905676
              ],
              [
                -105.123531,
                39.902106
              ],
              [
                -105.122923,
                39.901412
              ],
              [
                -105.118422,
                39.901925
              ],
              [
                -105.117732,
                39.904202
              ],
              [
                -105.113763,
                39.901735
              ],
              [
                -105.114184,
                39.900064
              ],
              [
                -105.102107,
                39.899766
              ],
              [
                -105.099935,
                39.898297
              ],
              [
                -105.096626,
                39.898298
              ],
              [
                -105.09609600000002,
                39.897378
              ],
              [
                -105.0952,
                39.897759
              ],
              [
                -105.090837,
                39.895632
              ],
              [
                -105.089444,
                39.894175
              ],
              [
                -105.087749,
                39.898136
              ],
              [
                -105.084293,
                39.898154
              ],
              [
                -105.084285,
                39.898957
              ],
              [
                -105.081056,
                39.89898
              ],
              [
                -105.08105500000002,
                39.899821
              ],
              [
                -105.080424,
                39.899819
              ],
              [
                -105.08025,
                39.899819
              ],
              [
                -105.071688,
                39.899832
              ],
              [
                -105.071733,
                39.904579
              ],
              [
                -105.071775,
                39.907018
              ],
              [
                -105.062392,
                39.907025
              ],
              [
                -105.06238600000002,
                39.911590000000004
              ],
              [
                -105.06238600000002,
                39.912528
              ],
              [
                -105.062219,
                39.912527
              ],
              [
                -105.060042,
                39.912453
              ],
              [
                -105.055294,
                39.912426
              ],
              [
                -105.055319,
                39.913725
              ],
              [
                -105.052979,
                39.913722
              ],
              [
                -105.052971,
                39.914224
              ],
              [
                -105.052892,
                39.914224
              ],
              [
                -105.046209,
                39.914219
              ],
              [
                -105.03907,
                39.914195
              ],
              [
                -105.034347,
                39.914181
              ],
              [
                -105.034383,
                39.917107
              ],
              [
                -105.034392,
                39.921155
              ],
              [
                -105.034395,
                39.921305
              ],
              [
                -105.02500300000001,
                39.92125
              ],
              [
                -105.023545,
                39.919225
              ],
              [
                -105.021552,
                39.919207
              ],
              [
                -105.021591,
                39.921367
              ],
              [
                -105.01546900000001,
                39.921402
              ],
              [
                -105.015539,
                39.925253
              ],
              [
                -105.014322,
                39.926022
              ],
              [
                -105.012512,
                39.928544
              ],
              [
                -105.014277,
                39.928556
              ],
              [
                -105.015488,
                39.928426
              ],
              [
                -105.015491,
                39.928544
              ],
              [
                -105.015521,
                39.933185
              ],
              [
                -105.015524,
                39.93342100000001
              ],
              [
                -105.015586,
                39.937276
              ],
              [
                -105.015657,
                39.943093
              ],
              [
                -105.015657,
                39.943131
              ],
              [
                -105.009791,
                39.943288
              ],
              [
                -104.9971,
                39.943239
              ],
              [
                -104.997152,
                39.946771
              ],
              [
                -105.00619,
                39.946804
              ],
              [
                -105.006298,
                39.950439
              ],
              [
                -105.012225,
                39.950446
              ],
              [
                -105.01711700000001,
                39.952814
              ],
              [
                -105.015816,
                39.954864
              ],
              [
                -105.01079100000001,
                39.956044
              ],
              [
                -105.01069900000002,
                39.957711
              ],
              [
                -105.010972,
                39.957712
              ],
              [
                -105.011629,
                39.956454
              ],
              [
                -105.013783,
                39.956335
              ],
              [
                -105.013824,
                39.95676
              ],
              [
                -105.014729,
                39.956708
              ],
              [
                -105.014625,
                39.955647
              ],
              [
                -105.015534,
                39.955471
              ],
              [
                -105.015481,
                39.957723
              ],
              [
                -105.01118600000001,
                39.95782
              ],
              [
                -105.009069,
                39.959143
              ],
              [
                -105.009238,
                39.964757
              ],
              [
                -104.997071,
                39.964851
              ],
              [
                -104.997108,
                39.967823
              ],
              [
                -104.997118,
                39.968528
              ],
              [
                -104.988159,
                39.968466
              ],
              [
                -104.988107,
                39.957571
              ],
              [
                -104.987976,
                39.943074
              ],
              [
                -104.987807,
                39.928543
              ],
              [
                -104.987921,
                39.919377
              ],
              [
                -104.98987000000001,
                39.914064
              ],
              [
                -104.992614,
                39.914049
              ],
              [
                -104.993202,
                39.914046
              ],
              [
                -104.99319900000002,
                39.913414
              ],
              [
                -104.993198,
                39.91333
              ],
              [
                -104.993028,
                39.913332
              ],
              [
                -104.992648,
                39.911422
              ],
              [
                -104.996647,
                39.911424
              ],
              [
                -104.996643,
                39.907169
              ],
              [
                -104.996632,
                39.903307
              ],
              [
                -104.996632,
                39.899724
              ],
              [
                -105.006096,
                39.89971500000001
              ],
              [
                -105.007444,
                39.899713
              ],
              [
                -105.007338,
                39.90058
              ],
              [
                -105.00814,
                39.900589
              ],
              [
                -105.008355,
                39.899712
              ],
              [
                -105.015532,
                39.899657
              ],
              [
                -105.01552,
                39.894648
              ],
              [
                -105.015516,
                39.89239100000001
              ],
              [
                -105.015517,
                39.88524700000001
              ],
              [
                -105.02502,
                39.885214
              ],
              [
                -105.025073,
                39.878336
              ],
              [
                -105.02509500000001,
                39.875823
              ],
              [
                -105.025015,
                39.870815
              ],
              [
                -105.025008,
                39.863492
              ],
              [
                -105.024982,
                39.859889
              ],
              [
                -105.024918,
                39.856274
              ],
              [
                -105.02015,
                39.856323
              ],
              [
                -105.016779,
                39.85621600000001
              ],
              [
                -105.01553,
                39.856044
              ],
              [
                -105.015391,
                39.851108
              ],
              [
                -105.015339,
                39.849043
              ],
              [
                -105.01538300000001,
                39.846502
              ],
              [
                -105.015407,
                39.84449
              ],
              [
                -105.018174,
                39.844485
              ],
              [
                -105.018298,
                39.841755
              ],
              [
                -105.020386,
                39.841769
              ],
              [
                -105.024773,
                39.841789
              ],
              [
                -105.024787,
                39.838541
              ],
              [
                -105.024786,
                39.838240000000006
              ],
              [
                -105.024229,
                39.836807
              ],
              [
                -105.023287,
                39.836138
              ],
              [
                -105.015502,
                39.833554
              ],
              [
                -105.01550400000002,
                39.833301000000006
              ],
              [
                -105.01554,
                39.827288
              ],
              [
                -105.015801,
                39.822042
              ],
              [
                -105.021656,
                39.822478
              ],
              [
                -105.024966,
                39.823564
              ],
              [
                -105.02500100000002,
                39.822081000000004
              ],
              [
                -105.022268,
                39.82124
              ],
              [
                -105.023126,
                39.820172
              ],
              [
                -105.021312,
                39.819554
              ],
              [
                -105.01993800000001,
                39.818239
              ],
              [
                -105.025021,
                39.820612
              ],
              [
                -105.029168,
                39.820023
              ],
              [
                -105.030312,
                39.822086
              ],
              [
                -105.034473,
                39.82212200000001
              ],
              [
                -105.034505,
                39.820168
              ],
              [
                -105.03556500000002,
                39.820169
              ],
              [
                -105.035613,
                39.819151
              ],
              [
                -105.03912300000002,
                39.819480000000006
              ],
              [
                -105.04391,
                39.819468
              ],
              [
                -105.043918,
                39.820111
              ],
              [
                -105.047796,
                39.820096
              ],
              [
                -105.05138600000001,
                39.820046
              ],
              [
                -105.05327,
                39.820028
              ],
              [
                -105.053282,
                39.821163
              ],
              [
                -105.053281,
                39.821859
              ],
              [
                -105.053271,
                39.823666
              ],
              [
                -105.056568,
                39.823644
              ],
              [
                -105.062242,
                39.823713
              ],
              [
                -105.062377,
                39.825929
              ],
              [
                -105.06224,
                39.82727
              ],
              [
                -105.06395400000001,
                39.827344
              ],
              [
                -105.067376,
                39.827335
              ],
              [
                -105.07204500000002,
                39.827309
              ],
              [
                -105.072074,
                39.830504
              ],
              [
                -105.0721,
                39.830898
              ],
              [
                -105.066326,
                39.830904
              ],
              [
                -105.062648,
                39.830905
              ],
              [
                -105.0627,
                39.835059
              ],
              [
                -105.062238,
                39.838267
              ],
              [
                -105.062169,
                39.837215
              ],
              [
                -105.061377,
                39.836296
              ],
              [
                -105.056794,
                39.838157
              ],
              [
                -105.056796,
                39.83997300000001
              ],
              [
                -105.053259,
                39.83996900000001
              ],
              [
                -105.053236,
                39.841807
              ],
              [
                -105.05324,
                39.844052
              ],
              [
                -105.05321,
                39.845763
              ],
              [
                -105.053188,
                39.849649
              ],
              [
                -105.0529,
                39.852042
              ],
              [
                -105.062526,
                39.855736
              ],
              [
                -105.064746,
                39.856547
              ],
              [
                -105.074117,
                39.856547
              ],
              [
                -105.076658,
                39.856506
              ],
              [
                -105.081686,
                39.856441
              ],
              [
                -105.081832,
                39.856439
              ],
              [
                -105.081901,
                39.851615
              ],
              [
                -105.087411,
                39.852497
              ],
              [
                -105.091198,
                39.85132200000001
              ],
              [
                -105.100595,
                39.852938
              ],
              [
                -105.10059,
                39.856386
              ],
              [
                -105.105307,
                39.856421
              ],
              [
                -105.105273,
                39.858908
              ],
              [
                -105.105934,
                39.858234
              ],
              [
                -105.106886,
                39.857972
              ],
              [
                -105.107584,
                39.857358
              ],
              [
                -105.107719,
                39.856596
              ],
              [
                -105.108882,
                39.856112
              ],
              [
                -105.110369,
                39.853536
              ],
              [
                -105.111761,
                39.85301
              ],
              [
                -105.116691,
                39.851573
              ],
              [
                -105.119108,
                39.851605
              ],
              [
                -105.12429700000001,
                39.852854
              ],
              [
                -105.125275,
                39.852925
              ],
              [
                -105.130204,
                39.852895
              ],
              [
                -105.131128,
                39.85213
              ],
              [
                -105.138319,
                39.853005
              ],
              [
                -105.138324,
                39.853496
              ],
              [
                -105.138379,
                39.853675
              ],
              [
                -105.138371,
                39.854956
              ],
              [
                -105.140921,
                39.854947
              ],
              [
                -105.140915,
                39.856622
              ],
              [
                -105.142041,
                39.858831
              ],
              [
                -105.143024,
                39.858832
              ],
              [
                -105.143063,
                39.856688
              ],
              [
                -105.145156,
                39.856682
              ],
              [
                -105.145182,
                39.859156
              ],
              [
                -105.14086,
                39.861642
              ],
              [
                -105.144313,
                39.860854
              ],
              [
                -105.143,
                39.862984
              ],
              [
                -105.143573,
                39.863617
              ],
              [
                -105.147649,
                39.863898
              ],
              [
                -105.147644,
                39.863078
              ],
              [
                -105.148979,
                39.863679
              ],
              [
                -105.153178,
                39.863482
              ],
              [
                -105.152313,
                39.867399
              ],
              [
                -105.14761,
                39.867491
              ],
              [
                -105.147593,
                39.869683
              ],
              [
                -105.148854,
                39.871031
              ],
              [
                -105.165409,
                39.870527
              ],
              [
                -105.16541400000001,
                39.870596
              ],
              [
                -105.165426,
                39.870699
              ],
              [
                -105.164066,
                39.870716
              ],
              [
                -105.16409,
                39.87288
              ],
              [
                -105.165453,
                39.872866
              ],
              [
                -105.165554,
                39.890898
              ]
            ],
            [
              [
                -105.152271,
                39.871104
              ],
              [
                -105.14843400000001,
                39.87128
              ],
              [
                -105.148259,
                39.871506
              ],
              [
                -105.147625,
                39.872427
              ],
              [
                -105.14744,
                39.874232
              ],
              [
                -105.147418,
                39.878259
              ],
              [
                -105.149949,
                39.875885
              ],
              [
                -105.149934,
                39.877799
              ],
              [
                -105.152256,
                39.877731
              ],
              [
                -105.152271,
                39.871104
              ]
            ],
            [
              [
                -105.147484,
                39.879098
              ],
              [
                -105.14591,
                39.87909
              ],
              [
                -105.145906,
                39.880365
              ],
              [
                -105.147507,
                39.880384
              ],
              [
                -105.147484,
                39.879098
              ]
            ],
            [
              [
                -105.09414500000001,
                39.889958
              ],
              [
                -105.092543,
                39.887174
              ],
              [
                -105.092488,
                39.888956
              ],
              [
                -105.091037,
                39.88793
              ],
              [
                -105.091102,
                39.885351
              ],
              [
                -105.08236,
                39.885712
              ],
              [
                -105.081967,
                39.885492
              ],
              [
                -105.083822,
                39.88381
              ],
              [
                -105.084221,
                39.88427
              ],
              [
                -105.086827,
                39.883994
              ],
              [
                -105.089139,
                39.884157
              ],
              [
                -105.089131,
                39.881788
              ],
              [
                -105.086495,
                39.881494
              ],
              [
                -105.083145,
                39.880362
              ],
              [
                -105.081291,
                39.88069600000001
              ],
              [
                -105.081234,
                39.884723
              ],
              [
                -105.081823,
                39.885421
              ],
              [
                -105.078778,
                39.888522
              ],
              [
                -105.081157,
                39.888515
              ],
              [
                -105.081095,
                39.89419
              ],
              [
                -105.082347,
                39.894179
              ],
              [
                -105.082375,
                39.892426
              ],
              [
                -105.086162,
                39.892436
              ],
              [
                -105.086322,
                39.887803000000005
              ],
              [
                -105.087053,
                39.887102
              ],
              [
                -105.088658,
                39.887111000000004
              ],
              [
                -105.088603,
                39.888949
              ],
              [
                -105.090503,
                39.888937
              ],
              [
                -105.090924,
                39.892458
              ],
              [
                -105.093242,
                39.892484
              ],
              [
                -105.093308,
                39.88996
              ],
              [
                -105.09414500000001,
                39.889958
              ]
            ],
            [
              [
                -105.092671,
                39.89256
              ],
              [
                -105.090926,
                39.892535
              ],
              [
                -105.089812,
                39.892525000000006
              ],
              [
                -105.08981,
                39.893454
              ],
              [
                -105.09267700000001,
                39.893416
              ],
              [
                -105.092671,
                39.89256
              ]
            ],
            [
              [
                -105.090991,
                39.873259
              ],
              [
                -105.088694,
                39.870995
              ],
              [
                -105.081543,
                39.871016
              ],
              [
                -105.08153600000001,
                39.872228
              ],
              [
                -105.079279,
                39.872842
              ],
              [
                -105.078613,
                39.87293
              ],
              [
                -105.078596,
                39.873322
              ],
              [
                -105.081508,
                39.873299
              ],
              [
                -105.081751,
                39.875337
              ],
              [
                -105.083892,
                39.875608
              ],
              [
                -105.083845,
                39.877217
              ],
              [
                -105.081379,
                39.877278
              ],
              [
                -105.081349,
                39.878971
              ],
              [
                -105.08695700000001,
                39.880807
              ],
              [
                -105.089026,
                39.87898
              ],
              [
                -105.088376,
                39.877603
              ],
              [
                -105.090013,
                39.878083
              ],
              [
                -105.091046,
                39.876373
              ],
              [
                -105.090991,
                39.873259
              ]
            ],
            [
              [
                -105.088837,
                39.892525000000006
              ],
              [
                -105.086857,
                39.892518
              ],
              [
                -105.086846,
                39.893457
              ],
              [
                -105.08881,
                39.893454
              ],
              [
                -105.088837,
                39.892525000000006
              ]
            ],
            [
              [
                -105.083703,
                39.855956
              ],
              [
                -105.08322900000002,
                39.855956
              ],
              [
                -105.083207,
                39.856415
              ],
              [
                -105.083569,
                39.8564
              ],
              [
                -105.083706,
                39.856406
              ],
              [
                -105.083703,
                39.855956
              ]
            ],
            [
              [
                -105.081617,
                39.868408
              ],
              [
                -105.079712,
                39.868422
              ],
              [
                -105.079719,
                39.867414
              ],
              [
                -105.077461,
                39.867428
              ],
              [
                -105.076839,
                39.868423
              ],
              [
                -105.076846,
                39.869704
              ],
              [
                -105.078436,
                39.869702
              ],
              [
                -105.078433,
                39.870351
              ],
              [
                -105.079993,
                39.87034100000001
              ],
              [
                -105.079973,
                39.870944
              ],
              [
                -105.081546,
                39.870941
              ],
              [
                -105.081617,
                39.868408
              ]
            ],
            [
              [
                -105.07781600000001,
                39.863681
              ],
              [
                -105.076911,
                39.861772
              ],
              [
                -105.074528,
                39.861207
              ],
              [
                -105.074806,
                39.862125
              ],
              [
                -105.074173,
                39.862801
              ],
              [
                -105.073918,
                39.863514
              ],
              [
                -105.074175,
                39.863566
              ],
              [
                -105.074402,
                39.862904
              ],
              [
                -105.07486800000001,
                39.862411
              ],
              [
                -105.076996,
                39.863515
              ],
              [
                -105.07730000000001,
                39.863691
              ],
              [
                -105.07781600000001,
                39.863681
              ]
            ],
            [
              [
                -105.076712,
                39.869703
              ],
              [
                -105.075366,
                39.8697
              ],
              [
                -105.07537,
                39.870963
              ],
              [
                -105.07364,
                39.870824
              ],
              [
                -105.073632,
                39.869768
              ],
              [
                -105.071859,
                39.869225
              ],
              [
                -105.071824,
                39.871041
              ],
              [
                -105.076859,
                39.871027
              ],
              [
                -105.076712,
                39.869703
              ]
            ],
            [
              [
                -105.075931,
                39.867468
              ],
              [
                -105.074484,
                39.867473
              ],
              [
                -105.074503,
                39.865652
              ],
              [
                -105.072138,
                39.86566100000001
              ],
              [
                -105.07179100000002,
                39.86624
              ],
              [
                -105.071848,
                39.866411
              ],
              [
                -105.071848,
                39.868388
              ],
              [
                -105.07589,
                39.868359
              ],
              [
                -105.075931,
                39.867468
              ]
            ],
            [
              [
                -105.05038,
                39.857847
              ],
              [
                -105.049895,
                39.856379
              ],
              [
                -105.048816,
                39.856363
              ],
              [
                -105.048673,
                39.85240600000001
              ],
              [
                -105.04589,
                39.848568
              ],
              [
                -105.044723,
                39.847444
              ],
              [
                -105.044117,
                39.847703
              ],
              [
                -105.040198,
                39.849227
              ],
              [
                -105.039244,
                39.854562
              ],
              [
                -105.036983,
                39.853743
              ],
              [
                -105.03435,
                39.854646
              ],
              [
                -105.034369,
                39.856263000000006
              ],
              [
                -105.02874,
                39.856273
              ],
              [
                -105.026352,
                39.856276
              ],
              [
                -105.026335,
                39.86349
              ],
              [
                -105.026954,
                39.863485
              ],
              [
                -105.034436,
                39.863487
              ],
              [
                -105.034424,
                39.862192
              ],
              [
                -105.033804,
                39.862183
              ],
              [
                -105.03379600000001,
                39.861810000000006
              ],
              [
                -105.034421,
                39.861808
              ],
              [
                -105.034409,
                39.860139
              ],
              [
                -105.034408,
                39.860088
              ],
              [
                -105.040545,
                39.860056
              ],
              [
                -105.050422,
                39.860085
              ],
              [
                -105.05038,
                39.857847
              ]
            ],
            [
              [
                -105.036068,
                39.845585
              ],
              [
                -105.035459,
                39.845574
              ],
              [
                -105.034296,
                39.845445
              ],
              [
                -105.029602,
                39.845417
              ],
              [
                -105.029574,
                39.848992
              ],
              [
                -105.034314,
                39.849035
              ],
              [
                -105.034328,
                39.846796
              ],
              [
                -105.03606,
                39.846767
              ],
              [
                -105.036068,
                39.845585
              ]
            ],
            [
              [
                -105.02683,
                39.822677
              ],
              [
                -105.02634200000001,
                39.822666
              ],
              [
                -105.025235,
                39.822656
              ],
              [
                -105.025228,
                39.823028
              ],
              [
                -105.02682100000001,
                39.823034
              ],
              [
                -105.02683,
                39.822677
              ]
            ],
            [
              [
                -105.024853,
                39.90848
              ],
              [
                -105.023121,
                39.908415
              ],
              [
                -105.023146,
                39.909504
              ],
              [
                -105.024861,
                39.909485
              ],
              [
                -105.024853,
                39.90848
              ]
            ],
            [
              [
                -105.00714700000002,
                39.904926
              ],
              [
                -105.006107,
                39.904911
              ],
              [
                -105.006118,
                39.905462
              ],
              [
                -105.007164,
                39.905465
              ],
              [
                -105.00714700000002,
                39.904926
              ]
            ],
            [
              [
                -104.999289,
                39.961036
              ],
              [
                -104.99705800000001,
                39.960828
              ],
              [
                -104.997066,
                39.963342
              ],
              [
                -104.999273,
                39.963342
              ],
              [
                -104.999289,
                39.961036
              ]
            ],
            [
              [
                -105.009069,
                39.959143
              ],
              [
                -105.00905900000001,
                39.957704
              ],
              [
                -105.003842,
                39.95768400000001
              ],
              [
                -105.003847,
                39.959433
              ],
              [
                -105.003826,
                39.960707
              ],
              [
                -105.0063,
                39.960667
              ],
              [
                -105.006343,
                39.959184
              ],
              [
                -105.009069,
                39.959143
              ]
            ],
            [
              [
                -105.088694,
                39.870995
              ],
              [
                -105.08976800000002,
                39.87099200000001
              ],
              [
                -105.081596,
                39.86611
              ],
              [
                -105.077168,
                39.863822
              ],
              [
                -105.081608,
                39.867037
              ],
              [
                -105.08158900000001,
                39.866516
              ],
              [
                -105.088694,
                39.870995
              ]
            ]
          ]
        ]
      }
    }
  ]
}
