{"type": "FeatureCollection", "features": [{"type": "Feature", "properties": {"NAME": "Countryside Tank", "STATUS": "Built", "INSTALLYEAR": 1965, "OWNERSHIP": "City of Westminster", "CAPACITYMG": null}, "geometry": {"type": "Point", "coordinates": [-105.1262496130121, 39.87934913630618]}}, {"type": "Feature", "properties": {"NAME": "Wandering View South Tank", "STATUS": "Built", "INSTALLYEAR": 1983, "OWNERSHIP": "City of Westminster", "CAPACITYMG": null}, "geometry": {"type": "Point", "coordinates": [-105.02928386101335, 39.88427911860888]}}, {"type": "Feature", "properties": {"NAME": "Wandering View North Tank", "STATUS": "Built", "INSTALLYEAR": 1974, "OWNERSHIP": "City of Westminster", "CAPACITYMG": null}, "geometry": {"type": "Point", "coordinates": [-105.02899040931938, 39.88466656318063]}}, {"type": "Feature", "properties": {"NAME": "Hydropillar Tank", "STATUS": "Built", "INSTALLYEAR": 1978, "OWNERSHIP": "City of Westminster", "CAPACITYMG": null}, "geometry": {"type": "Point", "coordinates": [-105.03007815727315, 39.87316266554575]}}, {"type": "Feature", "properties": {"NAME": "Northridge Tank 3 East", "STATUS": "Built", "INSTALLYEAR": 2014, "OWNERSHIP": "City of Westminster", "CAPACITYMG": null}, "geometry": {"type": "Point", "coordinates": [-105.0473728604921, 39.860689638533316]}}, {"type": "Feature", "properties": {"NAME": "Northwest Clearwell Tank", "STATUS": "Built", "INSTALLYEAR": 2001, "OWNERSHIP": "City of Westminster", "CAPACITYMG": null}, "geometry": {"type": "Point", "coordinates": [-105.09388616984506, 39.88614230710388]}}, {"type": "Feature", "properties": {"NAME": "Semper Clearwell Tank", "STATUS": "Built", "INSTALLYEAR": 2001, "OWNERSHIP": "City of Westminster", "CAPACITYMG": null}, "geometry": {"type": "Point", "coordinates": [-105.06986721966749, 39.86025800822095]}}, {"type": "Feature", "properties": {"NAME": "Gregory Hill West Tank", "STATUS": "Built", "INSTALLYEAR": 2019, "OWNERSHIP": "City of Westminster", "CAPACITYMG": null}, "geometry": {"type": "Point", "coordinates": [-105.03737316287615, 39.844790851441374]}}, {"type": "Feature", "properties": {"NAME": "Gregory Hill East Tank", "STATUS": "Built", "INSTALLYEAR": 2019, "OWNERSHIP": "City of Westminster", "CAPACITYMG": null}, "geometry": {"type": "Point", "coordinates": [-105.03666223286987, 39.84477369201507]}}, {"type": "Feature", "properties": {"NAME": "Sunset Ridge Tank", "STATUS": "Built", "INSTALLYEAR": 2020, "OWNERSHIP": "City of Westminster", "CAPACITYMG": null}, "geometry": {"type": "Point", "coordinates": [-105.02932293047131, 39.87338239285581]}}, {"type": "Feature", "properties": {"NAME": "Northridge Tank 1 West", "STATUS": "Built", "INSTALLYEAR": 2023, "OWNERSHIP": "City of Westminster", "CAPACITYMG": null}, "geometry": {"type": "Point", "coordinates": [-105.04883448216754, 39.860699829071145]}}, {"type": "Feature", "properties": {"NAME": "Northridge Tank 2 Middle", "STATUS": "Built", "INSTALLYEAR": 2023, "OWNERSHIP": "City of Westminster", "CAPACITYMG": null}, "geometry": {"type": "Point", "coordinates": [-105.04811543262642, 39.8607033049169]}}, {"type": "Feature", "properties": {"NAME": "Wandering View Surge Tank", "STATUS": "Built", "INSTALLYEAR": null, "OWNERSHIP": "City of Westminster", "CAPACITYMG": null}, "geometry": {"type": "Point", "coordinates": [-105.0296115225481, 39.88484345323903]}}]}