{"type": "FeatureCollection", "features": [{"type": "Feature", "properties": {"LINEARID": "110706513274", "FULLNAME": "Union Pacific RR", "MTFCC": "R1011"}, "geometry": {"type": "LineString", "coordinates": [[-104.999258, 39.79308], [-104.999261, 39.793764], [-104.999256, 39.793867], [-104.999267, 39.794357], [-104.999293, 39.794651], [-104.999292, 39.795], [-104.99927, 39.796039], [-104.999267, 39.796279], [-104.999264, 39.796519], [-104.999341, 39.797028], [-104.999366, 39.797107], [-104.999405, 39.79719], [-104.999487, 39.797319], [-104.999687, 39.797563], [-105.000017, 39.797925], [-105.000156, 39.79807], [-105.000322, 39.798247], [-105.000433, 39.798359], [-105.000556, 39.798483], [-105.000729, 39.798635], [-105.000937, 39.798827], [-105.00125, 39.799134], [-105.001473, 39.799331], [-105.001875, 39.799661], [-105.002164, 39.799871], [-105.002569, 39.800142]]}}, {"type": "Feature", "properties": {"LINEARID": "110706513280", "FULLNAME": "Union Pacific RR", "MTFCC": "R1011"}, "geometry": {"type": "LineString", "coordinates": [[-104.999264, 39.799186], [-104.999296, 39.799285], [-104.999369, 39.79945], [-104.999445, 39.799602], [-104.999522, 39.799742], [-104.999581, 39.799839], [-104.999662, 39.79996], [-104.999829, 39.800178], [-105.000074, 39.800448], [-105.0003, 39.800674], [-105.000443, 39.8008], [-105.000663, 39.800978], [-105.000864, 39.801126], [-105.001024, 39.801232], [-105.001329, 39.801407], [-105.003144, 39.802334], [-105.003509, 39.802538], [-105.003869, 39.802708]]}}, {"type": "Feature", "properties": {"LINEARID": "110706513251", "FULLNAME": "Union Pacific RR", "MTFCC": "R1011"}, "geometry": {"type": "LineString", "coordinates": [[-104.99862, 39.799048], [-104.99868, 39.79915], [-104.998866, 39.79954], [-104.998932, 39.799643], [-104.999082, 39.799986], [-104.999219, 39.800388]]}}, {"type": "Feature", "properties": {"LINEARID": "110706513246", "FULLNAME": "Union Pacific RR", "MTFCC": "R1011"}, "geometry": {"type": "LineString", "coordinates": [[-104.999219, 39.800388], [-104.999543, 39.801004], [-104.999709, 39.801196], [-105.000062, 39.801645], [-105.000293, 39.801895], [-105.0006, 39.802151], [-105.000838, 39.802324], [-105.001261, 39.802587], [-105.001748, 39.802831], [-105.002049, 39.802946], [-105.002376, 39.803055], [-105.002748, 39.803158], [-105.003229, 39.803235], [-105.003799, 39.803286], [-105.004275, 39.803302], [-105.004775, 39.803296], [-105.00628, 39.803266], [-105.006323, 39.803264], [-105.006622, 39.803248], [-105.006798, 39.80324], [-105.008254, 39.803163], [-105.009089, 39.803124], [-105.009859, 39.803096], [-105.010302, 39.803087], [-105.011766, 39.803002], [-105.012218, 39.803015], [-105.013299, 39.803119], [-105.014037, 39.80316], [-105.014146, 39.803167], [-105.015435, 39.803245], [-105.01625, 39.803295], [-105.017962, 39.803385], [-105.018152, 39.803398], [-105.018345, 39.803411], [-105.018551, 39.803426], [-105.019333, 39.803479], [-105.020928, 39.803572], [-105.022369, 39.803668], [-105.024747, 39.803802], [-105.025204, 39.803832], [-105.025297, 39.803839], [-105.025393, 39.803845], [-105.026678, 39.803933], [-105.027443, 39.803964], [-105.027518, 39.803965], [-105.027597, 39.803968], [-105.028032, 39.803982], [-105.029355, 39.804086], [-105.03003, 39.804122], [-105.034168, 39.804367], [-105.034533, 39.804386], [-105.034695, 39.804395], [-105.035635, 39.804458], [-105.03597, 39.804481], [-105.038448, 39.80463], [-105.038869, 39.80466], [-105.039974, 39.804727], [-105.040668, 39.804763], [-105.041253, 39.804774], [-105.041686, 39.804771], [-105.042105, 39.804752], [-105.042475, 39.804735], [-105.042736, 39.804712], [-105.04339, 39.804642], [-105.044032, 39.804548], [-105.044118, 39.804534], [-105.044373, 39.804492], [-105.04459, 39.804448], [-105.047457, 39.803866], [-105.047755, 39.803806], [-105.048486, 39.803652], [-105.04959, 39.803419], [-105.050239, 39.803286], [-105.05112, 39.803105], [-105.052641, 39.802783], [-105.05284, 39.802757]]}}, {"type": "Feature", "properties": {"LINEARID": "110706513252", "FULLNAME": "Union Pacific RR", "MTFCC": "R1011"}, "geometry": {"type": "LineString", "coordinates": [[-104.999219, 39.800388], [-104.999145, 39.800241], [-104.999005, 39.799964], [-104.998832, 39.79957], [-104.998652, 39.799161], [-104.99862, 39.799048]]}}, {"type": "Feature", "properties": {"LINEARID": "110713445753", "FULLNAME": "Union Pacific RR", "MTFCC": "R1011"}, "geometry": {"type": "LineString", "coordinates": [[-105.05284, 39.802757], [-105.053843, 39.802512], [-105.054246, 39.802445], [-105.054826, 39.802315], [-105.055719, 39.802196], [-105.056333, 39.802126], [-105.057596, 39.802055], [-105.058728, 39.802065], [-105.059866, 39.80215], [-105.06085, 39.802279], [-105.062689, 39.802685], [-105.067307, 39.803884], [-105.069806, 39.804504], [-105.0705, 39.804676], [-105.071997, 39.805072], [-105.077688, 39.806474], [-105.077803, 39.806503], [-105.077958, 39.806544], [-105.079801, 39.807029], [-105.080808, 39.807294], [-105.081424, 39.807434], [-105.083646, 39.807996], [-105.083803, 39.808034], [-105.084448, 39.808195], [-105.085817, 39.80856], [-105.087862, 39.809062], [-105.090823, 39.809781], [-105.09275, 39.810266], [-105.095403, 39.810992], [-105.096923, 39.811362], [-105.097063, 39.811406], [-105.098134, 39.811712], [-105.098595, 39.81189], [-105.099085, 39.812082], [-105.10034, 39.812886], [-105.10056, 39.813061], [-105.100863, 39.813365], [-105.101142, 39.813713], [-105.101473, 39.814194], [-105.101897, 39.814915], [-105.102882, 39.817037], [-105.103308, 39.817861], [-105.103741, 39.818575], [-105.104366, 39.819307], [-105.106299, 39.820749], [-105.107606, 39.821688], [-105.107759, 39.821791], [-105.10875, 39.822456], [-105.10963, 39.823048], [-105.112451, 39.824997], [-105.114667, 39.826535], [-105.115571, 39.827146], [-105.119085, 39.829566], [-105.119428, 39.829769], [-105.121666, 39.831359], [-105.123324, 39.832512], [-105.125456, 39.833964], [-105.126666, 39.834819], [-105.128604, 39.836168], [-105.130234, 39.83724], [-105.133071, 39.839182], [-105.133547, 39.839509], [-105.133971, 39.839802], [-105.134581, 39.840223], [-105.135424, 39.840874], [-105.136898, 39.841855], [-105.138967, 39.84329], [-105.140352, 39.844059], [-105.141121, 39.844443], [-105.1425, 39.84493], [-105.143831, 39.845343], [-105.144855, 39.845563], [-105.145268, 39.84563], [-105.1462, 39.845754], [-105.147781, 39.845893], [-105.150086, 39.846042], [-105.153963, 39.846337], [-105.156413, 39.846515], [-105.157037, 39.846568], [-105.159444, 39.846773], [-105.161596, 39.846889], [-105.163219, 39.847035], [-105.165256, 39.847187], [-105.167033, 39.8473], [-105.167946, 39.847394], [-105.169191, 39.847685], [-105.170181, 39.847961], [-105.171397, 39.848352], [-105.174642, 39.849624], [-105.17671, 39.85053], [-105.178784, 39.851367], [-105.18179, 39.852533], [-105.182502, 39.852805], [-105.184042, 39.853365], [-105.184768, 39.853648], [-105.186952, 39.854534], [-105.190242, 39.855835], [-105.193795, 39.857214], [-105.195949, 39.857908], [-105.197596, 39.858369], [-105.200774, 39.859259], [-105.202355, 39.859688], [-105.203432, 39.859969], [-105.203935, 39.860084], [-105.205277, 39.860248], [-105.20688, 39.860254], [-105.210303, 39.860089], [-105.213463, 39.859951], [-105.214127, 39.859985], [-105.215216, 39.860108], [-105.218535, 39.86053], [-105.220994, 39.860826], [-105.221338, 39.860871], [-105.221443, 39.860885], [-105.221888, 39.860944], [-105.222049, 39.860966], [-105.223507, 39.861161], [-105.226199, 39.861495], [-105.226271, 39.861504], [-105.226773, 39.86151], [-105.227186, 39.861515], [-105.227265, 39.861517], [-105.227621, 39.861509], [-105.227755, 39.861501], [-105.228192, 39.861478], [-105.228701, 39.86144], [-105.229287, 39.861343], [-105.22982, 39.861219], [-105.230204, 39.861137], [-105.231238, 39.860824], [-105.232114, 39.860511], [-105.233097, 39.860069], [-105.233806, 39.859714], [-105.23432, 39.859444], [-105.234762, 39.859245], [-105.234903, 39.85922], [-105.234974, 39.859209], [-105.235573, 39.859116], [-105.235832, 39.859097], [-105.236235, 39.859104], [-105.236831, 39.859147], [-105.237272, 39.859232], [-105.237705, 39.859394], [-105.238394, 39.859663], [-105.239419, 39.86004], [-105.240723, 39.860263], [-105.242852, 39.860535], [-105.244262, 39.860696], [-105.245606, 39.860816], [-105.246843, 39.860937], [-105.248307, 39.861169]]}}, {"type": "Feature", "properties": {"LINEARID": "11031808604371", "FULLNAME": "Union Pacific RR", "MTFCC": "R1011"}, "geometry": {"type": "LineString", "coordinates": [[-104.994898, 39.803477], [-104.994921, 39.803446], [-104.995049, 39.803229], [-104.995092, 39.803129], [-104.995145, 39.802967], [-104.995156, 39.802934], [-104.9952, 39.802742], [-104.995215, 39.802563], [-104.995211, 39.802284], [-104.995224, 39.801532], [-104.995238, 39.799951], [-104.995218, 39.799657], [-104.995202, 39.799576], [-104.995159, 39.799418], [-104.995155, 39.799403], [-104.995121, 39.799313], [-104.994994, 39.799047], [-104.994939, 39.798959], [-104.994805, 39.798791], [-104.994683, 39.798655], [-104.994548, 39.79853], [-104.994321, 39.798354], [-104.994237, 39.798294], [-104.9941, 39.798216], [-104.994006, 39.798171], [-104.993795, 39.798071], [-104.993567, 39.797984], [-104.993029, 39.797823], [-104.992334, 39.797609], [-104.992576, 39.797705], [-104.99266, 39.797744], [-104.992737, 39.797787], [-104.992804, 39.797834], [-104.992932, 39.797942], [-104.993096, 39.798114], [-104.993231, 39.798267], [-104.993372, 39.798435], [-104.99347, 39.798572], [-104.993528, 39.79867], [-104.993593, 39.798832], [-104.993681, 39.7991], [-104.993701, 39.799184], [-104.993719, 39.799302], [-104.993724, 39.799434], [-104.993721, 39.799494], [-104.993719, 39.799528], [-104.993706, 39.800595], [-104.993698, 39.802268], [-104.993703, 39.802434], [-104.993697, 39.802615], [-104.993694, 39.803224], [-104.993692, 39.803548], [-104.993685, 39.803656], [-104.993625, 39.803944], [-104.993552, 39.804145], [-104.993462, 39.804317], [-104.993297, 39.804562], [-104.993234, 39.804641], [-104.993092, 39.804794], [-104.993013, 39.804864], [-104.992984, 39.80489], [-104.9929, 39.804957]]}}, {"type": "Feature", "properties": {"LINEARID": "11031808617332", "FULLNAME": "Union Pacific RR", "MTFCC": "R1011"}, "geometry": {"type": "LineString", "coordinates": [[-104.963086, 39.803972], [-104.963649, 39.80411], [-104.964064, 39.804207], [-104.964552, 39.804328], [-104.965287, 39.804494], [-104.965855, 39.804637], [-104.966283, 39.804735], [-104.966942, 39.804865], [-104.967653, 39.804977], [-104.967953, 39.805004], [-104.968659, 39.805114], [-104.969654, 39.805237], [-104.969992, 39.805268], [-104.970319, 39.805292], [-104.970608, 39.805323], [-104.970979, 39.805355], [-104.972606, 39.80545], [-104.973646, 39.805481], [-104.974326, 39.80549], [-104.976608, 39.805496], [-104.977156, 39.805491], [-104.977852, 39.805497], [-104.977587, 39.80551], [-104.976336, 39.805608], [-104.97607, 39.805626], [-104.975881, 39.805631], [-104.974264, 39.805624], [-104.973996, 39.805635], [-104.972492, 39.805615], [-104.971627, 39.80561], [-104.971496, 39.805614], [-104.969974, 39.805613], [-104.969788, 39.805624], [-104.969624, 39.805648], [-104.969539, 39.805669], [-104.969472, 39.805685], [-104.96939, 39.805714], [-104.969293, 39.805756], [-104.969129, 39.805849], [-104.969, 39.805952], [-104.96893, 39.806025], [-104.968881, 39.806086], [-104.968823, 39.806182], [-104.968787, 39.806267], [-104.968764, 39.806355], [-104.968747, 39.806464], [-104.968745, 39.806914], [-104.968744, 39.807115], [-104.968745, 39.80795], [-104.968739, 39.808128], [-104.968737, 39.808998], [-104.968732, 39.809127], [-104.968735, 39.809629], [-104.968742, 39.810085], [-104.968722, 39.810948], [-104.968726, 39.811021], [-104.968735, 39.811067], [-104.968775, 39.811177], [-104.968816, 39.81126], [-104.968896, 39.81138], [-104.96893, 39.811421], [-104.969083, 39.811563], [-104.969234, 39.811688], [-104.96935, 39.811794], [-104.9694, 39.811848], [-104.969451, 39.811916], [-104.969503, 39.812007], [-104.969539, 39.812096], [-104.969545, 39.812117], [-104.969572, 39.812216], [-104.969583, 39.812322], [-104.96958, 39.812738], [-104.96958, 39.812843], [-104.969574, 39.813228], [-104.96957, 39.813522], [-104.969564, 39.814432], [-104.969532, 39.815862], [-104.969533, 39.81632], [-104.969524, 39.816649], [-104.969522, 39.816938], [-104.969517, 39.817221], [-104.969508, 39.817903], [-104.96948, 39.819366], [-104.969482, 39.819968], [-104.969482, 39.820155], [-104.96953, 39.820411], [-104.96955, 39.820475], [-104.969604, 39.820596], [-104.969689, 39.820721], [-104.969742, 39.820776], [-104.969805, 39.820833], [-104.96995, 39.820934], [-104.970033, 39.820985], [-104.97012, 39.821022], [-104.970211, 39.821054], [-104.970286, 39.821072], [-104.970425, 39.821092], [-104.97053, 39.821096], [-104.971476, 39.821099]]}}, {"type": "Feature", "properties": {"LINEARID": "1104486471464", "FULLNAME": "Burlington Northern Santa Fe Rlwy", "MTFCC": "R1011"}, "geometry": {"type": "LineString", "coordinates": [[-105.109235, 39.935538], [-105.109221, 39.935546], [-105.109041, 39.935664], [-105.108382, 39.936134]]}}, {"type": "Feature", "properties": {"LINEARID": "1104486769347", "FULLNAME": "Burlington Northern Santa Fe Rlwy", "MTFCC": "R1011"}, "geometry": {"type": "LineString", "coordinates": [[-105.091036, 39.918796], [-105.091774, 39.919135], [-105.092775, 39.91959], [-105.093137, 39.91976], [-105.093194, 39.919787], [-105.093508, 39.919946], [-105.093939, 39.920175], [-105.098255, 39.922167], [-105.098274, 39.922176], [-105.098714, 39.922367], [-105.098908, 39.922441], [-105.099463, 39.922625], [-105.099787, 39.92271], [-105.100045, 39.92277], [-105.10034, 39.92283], [-105.10057, 39.922866], [-105.100844, 39.922902], [-105.101343, 39.922947], [-105.102318, 39.922998], [-105.102909, 39.923041], [-105.103139, 39.923068], [-105.103598, 39.923141], [-105.103991, 39.923223], [-105.104331, 39.923311], [-105.104694, 39.923422], [-105.104858, 39.923479], [-105.105233, 39.923621], [-105.105497, 39.923737], [-105.105831, 39.9239], [-105.106306, 39.924173], [-105.106576, 39.924343], [-105.109023, 39.925874], [-105.109259, 39.926022], [-105.109406, 39.926114]]}}, {"type": "Feature", "properties": {"LINEARID": "1104486471532", "FULLNAME": "Burlington Northern Santa Fe Rlwy", "MTFCC": "R1011"}, "geometry": {"type": "LineString", "coordinates": [[-105.109406, 39.926114], [-105.110584, 39.92685], [-105.110917, 39.927058], [-105.111189, 39.927252], [-105.111479, 39.927488], [-105.111558, 39.92756], [-105.111784, 39.927785], [-105.111966, 39.927989], [-105.11212, 39.928185], [-105.112132, 39.9282], [-105.11219, 39.928284], [-105.112269, 39.928399], [-105.112407, 39.928625], [-105.113296, 39.930249], [-105.113446, 39.930541], [-105.113515, 39.930702], [-105.113569, 39.930862], [-105.113575, 39.930882], [-105.113579, 39.930895]]}}, {"type": "Feature", "properties": {"LINEARID": "110707547876", "FULLNAME": "Burlington Northern Santa Fe Rlwy", "MTFCC": "R1011"}, "geometry": {"type": "LineString", "coordinates": [[-105.12098, 39.952243], [-105.12089, 39.952008], [-105.120851, 39.951905], [-105.120784, 39.95173], [-105.12078, 39.951714], [-105.120769, 39.951687], [-105.120738, 39.951613], [-105.120649, 39.951402]]}}, {"type": "Feature", "properties": {"LINEARID": "110707441147", "FULLNAME": "Burlington Northern Santa Fe Rlwy", "MTFCC": "R1011"}, "geometry": {"type": "LineString", "coordinates": [[-105.123104, 39.957819], [-105.123081, 39.95776], [-105.123028, 39.957621], [-105.121867, 39.954586], [-105.121069, 39.952477], [-105.12098, 39.952243]]}}, {"type": "Feature", "properties": {"LINEARID": "1107063991348", "FULLNAME": "Burlington Northern Santa Fe Rlwy", "MTFCC": "R1011"}, "geometry": {"type": "LineString", "coordinates": [[-105.087215, 39.959989], [-105.087197, 39.960076], [-105.087182, 39.960189], [-105.087104, 39.960621], [-105.086997, 39.961053], [-105.086841, 39.961583], [-105.086734, 39.9619], [-105.086617, 39.962218], [-105.086491, 39.962536], [-105.086364, 39.962834], [-105.086357, 39.962853], [-105.086215, 39.963168], [-105.086065, 39.96348], [-105.085906, 39.96379], [-105.085754, 39.964072], [-105.085244, 39.964984], [-105.085151, 39.96515], [-105.085066, 39.965295], [-105.083897, 39.967289], [-105.083678, 39.967662], [-105.080927, 39.97236], [-105.079737, 39.974483], [-105.079185, 39.975308], [-105.078841, 39.975784], [-105.078689, 39.975994], [-105.0786, 39.976118], [-105.076533, 39.978792], [-105.075964, 39.979529], [-105.075445, 39.980182], [-105.074757, 39.981049], [-105.073767, 39.982314], [-105.071936, 39.984652], [-105.071797, 39.984815]]}}, {"type": "Feature", "properties": {"LINEARID": "110706513597", "FULLNAME": "Burlington Northern Santa Fe Rlwy", "MTFCC": "R1011"}, "geometry": {"type": "LineString", "coordinates": [[-104.998462, 39.799455], [-104.998577, 39.799705], [-104.998614, 39.799764], [-104.998667, 39.799881], [-104.998801, 39.800142], [-104.998896, 39.800339], [-104.999015, 39.800577], [-104.999133, 39.800813], [-104.999335, 39.801194], [-104.999456, 39.801382], [-104.999619, 39.801602], [-104.999814, 39.801891], [-105.000089, 39.80221], [-105.000222, 39.802361], [-105.000475, 39.802596], [-105.000789, 39.802881], [-105.000979, 39.803059], [-105.001181, 39.80324], [-105.001508, 39.80345], [-105.001959, 39.803717], [-105.002094, 39.803794], [-105.00227, 39.803897], [-105.002456, 39.803987], [-105.002831, 39.804185], [-105.00294, 39.804227], [-105.003155, 39.804326], [-105.003658, 39.80456], [-105.003918, 39.804688], [-105.004043, 39.804756], [-105.004123, 39.804797], [-105.004207, 39.804835], [-105.004257, 39.804862], [-105.004299, 39.804879], [-105.005354, 39.80539], [-105.005504, 39.805467], [-105.005584, 39.805503], [-105.005684, 39.805551], [-105.005797, 39.80561], [-105.006297, 39.805827], [-105.00652, 39.805921], [-105.006849, 39.806072], [-105.007235, 39.806263], [-105.007536, 39.806425], [-105.007592, 39.806455], [-105.007896, 39.806627], [-105.008166, 39.80679], [-105.008488, 39.806992], [-105.008704, 39.807142], [-105.008997, 39.807347], [-105.009202, 39.807496], [-105.00939, 39.807632], [-105.009494, 39.807709], [-105.009517, 39.807729], [-105.009586, 39.807787], [-105.009671, 39.807859], [-105.009768, 39.80795], [-105.009924, 39.808101], [-105.010123, 39.808304], [-105.010248, 39.808451], [-105.010471, 39.808701], [-105.010636, 39.808902], [-105.010922, 39.809285], [-105.011451, 39.810056], [-105.011545, 39.810194], [-105.011926, 39.810749], [-105.012945, 39.81223], [-105.013331, 39.812802], [-105.01378, 39.813468], [-105.013865, 39.813579], [-105.014036, 39.813838], [-105.014353, 39.814298], [-105.01442, 39.814388], [-105.014604, 39.814664], [-105.014675, 39.81477], [-105.014792, 39.814963], [-105.014921, 39.81519], [-105.015003, 39.815322], [-105.015123, 39.815478], [-105.015256, 39.815626], [-105.015441, 39.8158], [-105.015563, 39.815901], [-105.01574, 39.81603], [-105.016663, 39.816595], [-105.016799, 39.816671], [-105.01695, 39.816748], [-105.017247, 39.816908], [-105.017879, 39.817223], [-105.01804, 39.8173], [-105.018271, 39.81741], [-105.019938, 39.818239], [-105.020654, 39.818595], [-105.020734, 39.818635], [-105.022093, 39.8193], [-105.023339, 39.819921], [-105.023885, 39.82019], [-105.025019, 39.820747], [-105.02515, 39.820811], [-105.025419, 39.820943], [-105.02768, 39.822059], [-105.031784, 39.82409], [-105.033294, 39.824838], [-105.034271, 39.825321], [-105.034375, 39.825376], [-105.034556, 39.825465], [-105.034968, 39.825636], [-105.035391, 39.825827], [-105.035827, 39.826049], [-105.036434, 39.826346], [-105.037263, 39.826753], [-105.037476, 39.826868], [-105.037758, 39.827043], [-105.038236, 39.827281], [-105.039119, 39.827718], [-105.040558, 39.828431], [-105.041653, 39.828978], [-105.042152, 39.829238], [-105.042599, 39.829488], [-105.042923, 39.829688], [-105.043389, 39.830004], [-105.043783, 39.830304], [-105.04384, 39.830353], [-105.04414, 39.830611], [-105.044313, 39.830769], [-105.04449, 39.830943], [-105.044602, 39.831052], [-105.044641, 39.83109], [-105.044883, 39.831359], [-105.045043, 39.831544], [-105.045307, 39.831888], [-105.045398, 39.832013], [-105.045534, 39.832215], [-105.045729, 39.83254], [-105.045831, 39.832731], [-105.04597, 39.832991], [-105.046058, 39.83318], [-105.046184, 39.833477], [-105.046228, 39.8336], [-105.046303, 39.83381], [-105.0464, 39.834126], [-105.046476, 39.834423], [-105.046499, 39.834533], [-105.046624, 39.835146], [-105.046915, 39.836643], [-105.047201, 39.838066], [-105.047229, 39.838206], [-105.047929, 39.841796], [-105.048664, 39.845541], [-105.048781, 39.846133], [-105.048904, 39.846706], [-105.04899, 39.847109], [-105.049043, 39.847314], [-105.049205, 39.84782], [-105.049361, 39.848213], [-105.049463, 39.84844], [-105.049568, 39.848651], [-105.049804, 39.849066], [-105.049958, 39.849302], [-105.050079, 39.849475], [-105.050163, 39.849598], [-105.050404, 39.849922], [-105.050591, 39.850147], [-105.050817, 39.850399], [-105.051165, 39.850752], [-105.051519, 39.85107], [-105.051923, 39.851388], [-105.052186, 39.851584], [-105.05242, 39.85174], [-105.052743, 39.85195], [-105.0529, 39.852042]]}}, {"type": "Feature", "properties": {"LINEARID": "110706513612", "FULLNAME": "Burlington Northern Santa Fe Rlwy", "MTFCC": "R1011"}, "geometry": {"type": "LineString", "coordinates": [[-105.028032, 39.803982], [-105.028461, 39.803985], [-105.028988, 39.80399], [-105.029519, 39.803999], [-105.030879, 39.804086], [-105.034538, 39.804301], [-105.034697, 39.80431], [-105.035108, 39.80433], [-105.035464, 39.804331], [-105.035654, 39.80432], [-105.035971, 39.804301], [-105.0363, 39.804295], [-105.036522, 39.804301], [-105.041602, 39.804612], [-105.042016, 39.804616], [-105.042334, 39.804603], [-105.042792, 39.80457], [-105.043116, 39.804529], [-105.043379, 39.804482], [-105.044018, 39.804354], [-105.04687, 39.80377], [-105.047085, 39.803728], [-105.048497, 39.803433], [-105.04899, 39.80333], [-105.050026, 39.803115], [-105.050066, 39.803107], [-105.050235, 39.803072], [-105.052483, 39.802605], [-105.052644, 39.802571], [-105.052839, 39.802535]]}}, {"type": "Feature", "properties": {"LINEARID": "1102212725003", "FULLNAME": "Burlington Northern Santa Fe Rlwy", "MTFCC": "R1011"}, "geometry": {"type": "LineString", "coordinates": [[-105.108382, 39.936134], [-105.107985, 39.936417], [-105.107225, 39.936922], [-105.106786, 39.937197], [-105.106337, 39.937463], [-105.105879, 39.937721], [-105.105383, 39.937984], [-105.105229, 39.93806], [-105.10487, 39.938236], [-105.10435, 39.938478], [-105.103824, 39.93871], [-105.10329, 39.938931], [-105.102685, 39.939166], [-105.10204, 39.939398], [-105.10142, 39.939605], [-105.101387, 39.939619], [-105.100142, 39.940017], [-105.099852, 39.940117], [-105.099566, 39.940224], [-105.099159, 39.940388], [-105.09873, 39.940578], [-105.098311, 39.940781], [-105.097933, 39.940981], [-105.097536, 39.941209], [-105.097179, 39.941432], [-105.096833, 39.941665], [-105.096474, 39.941927], [-105.096129, 39.9422], [-105.095798, 39.942484], [-105.095461, 39.9428], [-105.095267, 39.942995], [-105.095246, 39.943026], [-105.093244, 39.945225], [-105.09321, 39.945251], [-105.093006, 39.945476], [-105.092636, 39.94591], [-105.092285, 39.946355], [-105.092055, 39.946669], [-105.091836, 39.946986], [-105.091626, 39.947308], [-105.091427, 39.947633], [-105.091197, 39.948039], [-105.090975, 39.948463], [-105.090949, 39.948489], [-105.090682, 39.949062], [-105.090584, 39.949288], [-105.090466, 39.949561], [-105.090387, 39.949756], [-105.090274, 39.950037], [-105.09019, 39.950261], [-105.090094, 39.950515], [-105.089926, 39.950996], [-105.08973, 39.951614], [-105.089553, 39.952237], [-105.088792, 39.954685], [-105.087878, 39.957792], [-105.08787, 39.95784]]}}, {"type": "Feature", "properties": {"LINEARID": "110707547879", "FULLNAME": "Burlington Northern Santa Fe Rlwy", "MTFCC": "R1011"}, "geometry": {"type": "LineString", "coordinates": [[-105.076973, 39.8998], [-105.076996, 39.899875], [-105.077893, 39.903013], [-105.077926, 39.903125], [-105.07904, 39.90702], [-105.079153, 39.907415], [-105.07919, 39.907543], [-105.079775, 39.909588], [-105.079943, 39.910176], [-105.07999, 39.910358], [-105.080037, 39.910653], [-105.080071, 39.910865], [-105.080128, 39.911115], [-105.080152, 39.911194], [-105.080166, 39.911242], [-105.080221, 39.91139], [-105.080257, 39.911485], [-105.080395, 39.911784], [-105.080581, 39.912137], [-105.080742, 39.912415], [-105.080905, 39.912667], [-105.081097, 39.912946], [-105.081381, 39.91331], [-105.081462, 39.913401], [-105.081659, 39.913623], [-105.081862, 39.913836], [-105.082036, 39.914004], [-105.082354, 39.914291], [-105.082407, 39.914339], [-105.082736, 39.914609], [-105.082952, 39.914771], [-105.083013, 39.914814], [-105.08325, 39.914982], [-105.083662, 39.91525], [-105.08402, 39.915462], [-105.084585, 39.915776], [-105.084901, 39.915942], [-105.085165, 39.916074], [-105.085861, 39.916405], [-105.087456, 39.917146], [-105.087968, 39.917376], [-105.088929, 39.917776], [-105.089281, 39.917938], [-105.089402, 39.917993], [-105.089706, 39.918133], [-105.089968, 39.918262], [-105.090396, 39.918487], [-105.090708, 39.918644]]}}, {"type": "Feature", "properties": {"LINEARID": "110707441156", "FULLNAME": "Burlington Northern Santa Fe Rlwy", "MTFCC": "R1011"}, "geometry": {"type": "LineString", "coordinates": [[-105.120649, 39.951402], [-105.120535, 39.951094], [-105.120347, 39.950585], [-105.120324, 39.950524]]}}, {"type": "Feature", "properties": {"LINEARID": "110713446462", "FULLNAME": "Burlington Northern Santa Fe Rlwy", "MTFCC": "R1011"}, "geometry": {"type": "LineString", "coordinates": [[-105.0529, 39.852042], [-105.053594, 39.852334], [-105.054917, 39.85288], [-105.058768, 39.854302], [-105.062526, 39.855736], [-105.064746, 39.856547], [-105.066527, 39.857338], [-105.06771, 39.857865], [-105.070015, 39.859219], [-105.071131, 39.859932], [-105.071407, 39.860107], [-105.074806, 39.862125], [-105.07487, 39.862163], [-105.074949, 39.86221], [-105.076996, 39.863515], [-105.077032, 39.863538], [-105.077081, 39.86357], [-105.0773, 39.863691], [-105.077533, 39.863825], [-105.078012, 39.864101], [-105.081596, 39.86625], [-105.083781, 39.867681], [-105.088422, 39.870531], [-105.089175, 39.870994], [-105.089282, 39.87106], [-105.089435, 39.871142], [-105.090426, 39.872], [-105.090821, 39.872458], [-105.091216, 39.873213], [-105.091495, 39.873828], [-105.091592, 39.874183], [-105.091669, 39.874598], [-105.091629, 39.875552], [-105.091384, 39.876501], [-105.091014, 39.877291], [-105.090329, 39.878116], [-105.090212, 39.878217], [-105.089329, 39.878982], [-105.087967, 39.880161], [-105.087449, 39.880643], [-105.086953, 39.881159], [-105.086739, 39.881324], [-105.086556, 39.881443], [-105.086495, 39.881494], [-105.085126, 39.882629], [-105.084107, 39.883552], [-105.084074, 39.883582], [-105.084036, 39.883616], [-105.083822, 39.88381], [-105.083336, 39.88425], [-105.081967, 39.885492], [-105.081955, 39.885505], [-105.081899, 39.885563], [-105.081837, 39.885632], [-105.078854, 39.88835], [-105.078275, 39.888849], [-105.07722, 39.889813], [-105.076619, 39.890388], [-105.076109, 39.891136], [-105.075657, 39.892029], [-105.075597, 39.892139], [-105.075563, 39.89233], [-105.076819, 39.899235], [-105.076973, 39.8998]]}}, {"type": "Feature", "properties": {"LINEARID": "11010887093687", "FULLNAME": "Burlington Northern Santa Fe Rlwy", "MTFCC": "R1011"}, "geometry": {"type": "LineString", "coordinates": [[-105.052839, 39.802535], [-105.053266, 39.802448], [-105.055359, 39.802023], [-105.056909, 39.801689], [-105.058401, 39.801388], [-105.060445, 39.800961], [-105.061413, 39.800794], [-105.062067, 39.800723], [-105.063685, 39.800552], [-105.065187, 39.800474], [-105.066512, 39.800384], [-105.067001, 39.800369], [-105.067303, 39.800337], [-105.068164, 39.800309], [-105.070409, 39.800204], [-105.07219, 39.800147], [-105.072895, 39.800128], [-105.073476, 39.800073], [-105.074565, 39.799946], [-105.075589, 39.799802], [-105.0764, 39.799688], [-105.076515, 39.799672], [-105.076587, 39.799662], [-105.079076, 39.799299], [-105.079642, 39.799143], [-105.081417, 39.798538], [-105.083726, 39.798036], [-105.085522, 39.797646], [-105.086129, 39.797502], [-105.08624, 39.797483], [-105.088444, 39.796976], [-105.090839, 39.796431], [-105.095496, 39.795253], [-105.095667, 39.79521], [-105.095791, 39.795162], [-105.098459, 39.794501], [-105.099505, 39.794248], [-105.10016, 39.794068], [-105.101235, 39.793853], [-105.101957, 39.793706], [-105.104915, 39.793348], [-105.106774, 39.793194], [-105.108252, 39.793026], [-105.109275, 39.792918], [-105.110646, 39.792668], [-105.112038, 39.79236], [-105.114344, 39.791862], [-105.114922, 39.791734], [-105.115263, 39.791659], [-105.115372, 39.791635], [-105.116211, 39.791475], [-105.116974, 39.79133], [-105.118533, 39.791024], [-105.1211, 39.790478], [-105.123786, 39.78991], [-105.124739, 39.789726], [-105.125677, 39.789516], [-105.128525, 39.78892], [-105.128641, 39.788896], [-105.128737, 39.788866], [-105.130879, 39.788375], [-105.134381, 39.78757], [-105.137961, 39.786747], [-105.142641, 39.785586], [-105.15024, 39.78345], [-105.155149, 39.78207], [-105.156741, 39.78161], [-105.157368, 39.781448], [-105.158007, 39.781285], [-105.159227, 39.780941], [-105.160793, 39.7805], [-105.162538, 39.779994], [-105.163809, 39.77963], [-105.165361, 39.779185], [-105.168858, 39.77819], [-105.170548, 39.777706], [-105.171849, 39.777334], [-105.174404, 39.776592], [-105.174668, 39.776516], [-105.174741, 39.776488], [-105.17496, 39.776427], [-105.177078, 39.775843], [-105.181995, 39.774421], [-105.183899, 39.773873], [-105.184092, 39.773801], [-105.184579, 39.773619], [-105.186663, 39.772736], [-105.187987, 39.7721], [-105.188291, 39.771951], [-105.189684, 39.771378], [-105.189835, 39.771323], [-105.191244, 39.77077], [-105.192026, 39.770487], [-105.192842, 39.770334], [-105.195231, 39.770023], [-105.197631, 39.769694], [-105.198022, 39.76964], [-105.198713, 39.769484], [-105.199327, 39.76928], [-105.199515, 39.769201], [-105.199664, 39.769139], [-105.202278, 39.768255], [-105.205038, 39.767387], [-105.205899, 39.767052], [-105.20684, 39.766568]]}}, {"type": "Feature", "properties": {"LINEARID": "11030539237771", "FULLNAME": "Burlington Northern Santa Fe Rlwy", "MTFCC": "R1011"}, "geometry": {"type": "LineString", "coordinates": [[-105.112293, 39.933567], [-105.110014, 39.935039], [-105.109979, 39.935062], [-105.109358, 39.935463], [-105.109259, 39.935524], [-105.109235, 39.935538]]}}, {"type": "Feature", "properties": {"LINEARID": "1104469115373", "FULLNAME": "Burlington Northern Santa Fe Rlwy", "MTFCC": "R1011"}, "geometry": {"type": "LineString", "coordinates": [[-105.09106, 39.918714], [-105.093177, 39.919681], [-105.093365, 39.919767], [-105.098282, 39.922035], [-105.098367, 39.922074], [-105.098738, 39.922238], [-105.098958, 39.922327], [-105.099274, 39.922443], [-105.099581, 39.922538], [-105.100018, 39.922649], [-105.100051, 39.922658], [-105.100398, 39.922726], [-105.100835, 39.922778], [-105.101203, 39.922811], [-105.102078, 39.922862], [-105.102941, 39.922923], [-105.103112, 39.92294], [-105.103437, 39.922982], [-105.103865, 39.923052], [-105.104067, 39.923092], [-105.10434, 39.923152], [-105.104761, 39.923261], [-105.105013, 39.923338], [-105.105429, 39.923477], [-105.105754, 39.923602], [-105.106201, 39.923801], [-105.106446, 39.923921], [-105.106723, 39.92407], [-105.106979, 39.924222], [-105.107532, 39.92458], [-105.108305, 39.925107], [-105.108581, 39.925297], [-105.109052, 39.925619], [-105.109409, 39.925859]]}}, {"type": "Feature", "properties": {"LINEARID": "1104469115374", "FULLNAME": "Burlington Northern Santa Fe Rlwy", "MTFCC": "R1011"}, "geometry": {"type": "LineString", "coordinates": [[-105.109409, 39.925859], [-105.111261, 39.927107], [-105.112624, 39.928113], [-105.113312, 39.92858], [-105.11394, 39.928989]]}}, {"type": "Feature", "properties": {"LINEARID": "1108476057485", "FULLNAME": "Burlington Northern Santa Fe Rlwy", "MTFCC": "R1011"}, "geometry": {"type": "LineString", "coordinates": [[-104.994898, 39.803477], [-104.994826, 39.803576], [-104.994595, 39.803836], [-104.994459, 39.803963], [-104.994285, 39.804104], [-104.994111, 39.804219], [-104.993918, 39.80434], [-104.993586, 39.804539], [-104.993385, 39.804673], [-104.993238, 39.804754], [-104.99309, 39.804846], [-104.9929, 39.804957], [-104.992779, 39.80503], [-104.992517, 39.805173], [-104.992261, 39.805294], [-104.991869, 39.805424], [-104.991422, 39.805524], [-104.991156, 39.805573], [-104.990961, 39.805606], [-104.990137, 39.805647]]}}, {"type": "Feature", "properties": {"LINEARID": "11033563898286", "FULLNAME": "Burlington Northern Santa Fe Rlwy", "MTFCC": "R1011"}, "geometry": {"type": "LineString", "coordinates": [[-105.214038, 40.017332], [-105.212835, 40.0172], [-105.212575, 40.017171], [-105.209641, 40.016846], [-105.208458, 40.016715], [-105.208278, 40.016695], [-105.20817, 40.016683], [-105.20806, 40.016671], [-105.20679, 40.016531], [-105.206693, 40.01652], [-105.206595, 40.01651], [-105.206579, 40.016508], [-105.206265, 40.016474], [-105.205141, 40.016353], [-105.200963, 40.015902], [-105.200513, 40.015874], [-105.200063, 40.015864], [-105.199613, 40.015872], [-105.199164, 40.015899], [-105.198718, 40.015944], [-105.198288, 40.015998], [-105.197307, 40.01621], [-105.195444, 40.016513], [-105.194382, 40.016733], [-105.190707, 40.017521], [-105.190015, 40.017647], [-105.189563, 40.017687], [-105.189113, 40.017695], [-105.187653, 40.017624], [-105.18708, 40.017546], [-105.186653, 40.017436], [-105.18625, 40.017285], [-105.185876, 40.017094], [-105.185539, 40.016869], [-105.18542, 40.016765], [-105.185244, 40.016611], [-105.18501, 40.016312], [-105.184714, 40.015875], [-105.183874, 40.014636], [-105.18267, 40.01286], [-105.182076, 40.011984], [-105.181521, 40.011461], [-105.181211, 40.011212], [-105.180884, 40.010977], [-105.18054, 40.010756], [-105.180182, 40.010549], [-105.179809, 40.010357], [-105.179422, 40.01018], [-105.179024, 40.01002], [-105.178615, 40.009876], [-105.178233, 40.009759], [-105.177762, 40.009632], [-105.177469, 40.009566], [-105.177321, 40.009533], [-105.176874, 40.009452], [-105.176804, 40.009443], [-105.17643, 40.009395], [-105.175992, 40.009363], [-105.169257, 40.008723], [-105.164139, 40.00779], [-105.164073, 40.007778], [-105.162727, 40.007533], [-105.157983, 40.006684], [-105.157673, 40.006629], [-105.150265, 40.005304], [-105.149439, 40.005106], [-105.149041, 40.004942], [-105.148675, 40.00474], [-105.148653, 40.004727], [-105.148616, 40.004705], [-105.147063, 40.003793], [-105.146954, 40.003729], [-105.143519, 40.001711], [-105.143212, 40.001457], [-105.142965, 40.001168], [-105.142283, 40.000316], [-105.1422, 40.000213], [-105.142138, 40.000135], [-105.142076, 40.000057], [-105.142053, 40.000028], [-105.14129, 39.999076], [-105.140531, 39.998129], [-105.140323, 39.997869], [-105.139676, 39.997062], [-105.138161, 39.995169], [-105.137353, 39.994162], [-105.137148, 39.993905], [-105.136327, 39.992879], [-105.135933, 39.992388], [-105.134616, 39.990744], [-105.134109, 39.99011], [-105.133053, 39.988792], [-105.132714, 39.988323], [-105.13251, 39.988015], [-105.132324, 39.9877], [-105.132156, 39.987379], [-105.132008, 39.987053], [-105.131992, 39.98701], [-105.131931, 39.986846], [-105.131885, 39.986722], [-105.131779, 39.98638], [-105.13177, 39.986331], [-105.131443, 39.98458], [-105.131269, 39.983649], [-105.13107, 39.982582], [-105.130719, 39.980698], [-105.130524, 39.97965], [-105.130441, 39.979208], [-105.130346, 39.978713], [-105.130168, 39.977778], [-105.129994, 39.976869], [-105.129812, 39.975918], [-105.129144, 39.972422], [-105.129042, 39.972023], [-105.128939, 39.971695], [-105.128814, 39.971362], [-105.12867, 39.971033], [-105.128509, 39.970709], [-105.128329, 39.97039], [-105.128131, 39.970066], [-105.127865, 39.969716], [-105.127761, 39.96957], [-105.127549, 39.969274], [-105.127356, 39.968958], [-105.127218, 39.968699], [-105.127184, 39.968635], [-105.127033, 39.968304], [-105.126896, 39.967953], [-105.126795, 39.967683], [-105.125913, 39.965327], [-105.125028, 39.962961], [-105.124119, 39.960531]]}}, {"type": "Feature", "properties": {"LINEARID": "1104469016219", "FULLNAME": "Burlington Northern Santa Fe Rlwy", "MTFCC": "R1011"}, "geometry": {"type": "LineString", "coordinates": [[-105.087766, 39.958032], [-105.087522, 39.958732], [-105.087475, 39.958902], [-105.087472, 39.958914], [-105.08731, 39.959551], [-105.087278, 39.959704], [-105.087228, 39.95993], [-105.087215, 39.959989]]}}, {"type": "Feature", "properties": {"LINEARID": "1104469115372", "FULLNAME": "Burlington Northern Santa Fe Rlwy", "MTFCC": "R1011"}, "geometry": {"type": "LineString", "coordinates": [[-105.120324, 39.950524], [-105.120233, 39.950288], [-105.119009, 39.947089], [-105.118683, 39.946248], [-105.118571, 39.945943], [-105.118516, 39.945702], [-105.118479, 39.945493], [-105.118479, 39.945321], [-105.118501, 39.945115], [-105.118541, 39.944969], [-105.118617, 39.94477], [-105.118716, 39.94459], [-105.118815, 39.944457], [-105.118872, 39.944373], [-105.119012, 39.944216], [-105.119875, 39.943299], [-105.119905, 39.943268], [-105.120643, 39.942489], [-105.121645, 39.941404], [-105.122165, 39.940869], [-105.122729, 39.940264], [-105.123146, 39.939827], [-105.123494, 39.939489], [-105.12371, 39.939269], [-105.124084, 39.938849], [-105.124183, 39.938717], [-105.124242, 39.938622], [-105.124352, 39.938421], [-105.124455, 39.938197], [-105.124501, 39.938071], [-105.124575, 39.937783], [-105.124586, 39.93769], [-105.124592, 39.937641], [-105.124598, 39.937511], [-105.12459, 39.937334], [-105.124561, 39.937062], [-105.124532, 39.93696], [-105.124448, 39.93672], [-105.124323, 39.936452], [-105.12425, 39.936307], [-105.124094, 39.936081], [-105.123854, 39.935815], [-105.123606, 39.935618], [-105.123397, 39.935444], [-105.122633, 39.934916], [-105.122009, 39.934497], [-105.120571, 39.933507], [-105.119338, 39.932665], [-105.119038, 39.932457], [-105.118332, 39.931966], [-105.118087, 39.931777], [-105.117879, 39.931627], [-105.117673, 39.931489], [-105.116389, 39.930606], [-105.115671, 39.930149], [-105.114379, 39.929263], [-105.114072, 39.929052], [-105.11394, 39.928989]]}}, {"type": "Feature", "properties": {"LINEARID": "110706521580", "FULLNAME": "", "MTFCC": "R1011"}, "geometry": {"type": "LineString", "coordinates": [[-105.002442, 39.801823], [-105.002147, 39.801671]]}}, {"type": "Feature", "properties": {"LINEARID": "110706521174", "FULLNAME": "", "MTFCC": "R1011"}, "geometry": {"type": "LineString", "coordinates": [[-104.994575, 39.800685], [-104.994576, 39.801583], [-104.994558, 39.803067], [-104.994547, 39.803173], [-104.994523, 39.803287], [-104.994502, 39.803388], [-104.994471, 39.803479], [-104.994408, 39.803627]]}}, {"type": "Feature", "properties": {"LINEARID": "110706521370", "FULLNAME": "", "MTFCC": "R1011"}, "geometry": {"type": "LineString", "coordinates": [[-105.012396, 39.803253], [-105.011977, 39.803232], [-105.011799, 39.803216], [-105.0114, 39.803212], [-105.010782, 39.803216], [-105.009575, 39.80326], [-105.008479, 39.803326], [-105.008074, 39.803351], [-105.007709, 39.803364]]}}, {"type": "Feature", "properties": {"LINEARID": "110706521546", "FULLNAME": "", "MTFCC": "R1011"}, "geometry": {"type": "LineString", "coordinates": [[-105.001448, 39.800722], [-105.001273, 39.80051]]}}, {"type": "Feature", "properties": {"LINEARID": "110706521241", "FULLNAME": "", "MTFCC": "R1011"}, "geometry": {"type": "LineString", "coordinates": [[-105.001595, 39.800895], [-105.001448, 39.800722]]}}, {"type": "Feature", "properties": {"LINEARID": "110706521316", "FULLNAME": "", "MTFCC": "R1011"}, "geometry": {"type": "LineString", "coordinates": [[-105.012492, 39.803373], [-105.012025, 39.803534], [-105.011843, 39.803608], [-105.011695, 39.803682], [-105.010917, 39.804148]]}}, {"type": "Feature", "properties": {"LINEARID": "110706521320", "FULLNAME": "", "MTFCC": "R1011"}, "geometry": {"type": "LineString", "coordinates": [[-105.001273, 39.80051], [-105.00113, 39.800297], [-105.001046, 39.800157]]}}, {"type": "Feature", "properties": {"LINEARID": "110706521330", "FULLNAME": "", "MTFCC": "R1011"}, "geometry": {"type": "LineString", "coordinates": [[-105.012277, 39.8034], [-105.012097, 39.80344], [-105.012029, 39.803458], [-105.01187, 39.803511], [-105.011649, 39.803611], [-105.01086, 39.804089]]}}, {"type": "Feature", "properties": {"LINEARID": "110706521333", "FULLNAME": "", "MTFCC": "R1011"}, "geometry": {"type": "LineString", "coordinates": [[-105.013159, 39.803195], [-105.012803, 39.80323]]}}, {"type": "Feature", "properties": {"LINEARID": "110706521336", "FULLNAME": "", "MTFCC": "R1011"}, "geometry": {"type": "LineString", "coordinates": [[-105.012803, 39.80323], [-105.012638, 39.803245], [-105.012396, 39.803253]]}}, {"type": "Feature", "properties": {"LINEARID": "110706521339", "FULLNAME": "", "MTFCC": "R1011"}, "geometry": {"type": "LineString", "coordinates": [[-105.012397, 39.803274], [-105.012095, 39.803315], [-105.011965, 39.80334], [-105.011542, 39.803439], [-105.01124, 39.803503]]}}, {"type": "Feature", "properties": {"LINEARID": "110706521364", "FULLNAME": "", "MTFCC": "R1011"}, "geometry": {"type": "LineString", "coordinates": [[-105.00718, 39.803634], [-105.007034, 39.803654], [-105.006809, 39.803664]]}}, {"type": "Feature", "properties": {"LINEARID": "110707548217", "FULLNAME": "", "MTFCC": "R1011"}, "geometry": {"type": "LineString", "coordinates": [[-105.108581, 39.925297], [-105.108435, 39.925212], [-105.108204, 39.925078], [-105.108034, 39.924988], [-105.107787, 39.924875], [-105.107201, 39.924639], [-105.107011, 39.924558], [-105.106743, 39.924429], [-105.106576, 39.924343]]}}, {"type": "Feature", "properties": {"LINEARID": "110707548222", "FULLNAME": "", "MTFCC": "R1011"}, "geometry": {"type": "LineString", "coordinates": [[-105.090737, 39.918558], [-105.089519, 39.917996], [-105.089433, 39.917957], [-105.089309, 39.9179], [-105.085692, 39.916234]]}}, {"type": "Feature", "properties": {"LINEARID": "110706521545", "FULLNAME": "", "MTFCC": "R1011"}, "geometry": {"type": "LineString", "coordinates": [[-105.001608, 39.801036], [-105.001487, 39.800839], [-105.001412, 39.800729], [-105.001273, 39.80051]]}}, {"type": "Feature", "properties": {"LINEARID": "110706521550", "FULLNAME": "", "MTFCC": "R1011"}, "geometry": {"type": "LineString", "coordinates": [[-105.002442, 39.801823], [-105.002252, 39.801707], [-105.002055, 39.801565], [-105.001894, 39.801415], [-105.001818, 39.801333], [-105.001655, 39.801115], [-105.001608, 39.801036]]}}, {"type": "Feature", "properties": {"LINEARID": "110706521558", "FULLNAME": "", "MTFCC": "R1011"}, "geometry": {"type": "LineString", "coordinates": [[-105.002147, 39.801671], [-105.001864, 39.801522], [-105.001311, 39.801241], [-105.001071, 39.801097], [-105.000816, 39.800919], [-105.000641, 39.800788], [-105.000314, 39.80049], [-105.000157, 39.800323], [-105.000028, 39.800178], [-104.999734, 39.799773], [-104.999621, 39.799579], [-104.999571, 39.799479], [-104.999485, 39.799285], [-104.999414, 39.799095], [-104.999404, 39.799062], [-104.999321, 39.79878], [-104.999292, 39.798614], [-104.99926, 39.798434], [-104.999257, 39.798271]]}}, {"type": "Feature", "properties": {"LINEARID": "110706521570", "FULLNAME": "", "MTFCC": "R1011"}, "geometry": {"type": "LineString", "coordinates": [[-104.999543, 39.801004], [-104.99927, 39.800658], [-104.998993, 39.800323], [-104.998864, 39.800159], [-104.998779, 39.800034], [-104.998689, 39.799882], [-104.998614, 39.799764]]}}, {"type": "Feature", "properties": {"LINEARID": "110706521388", "FULLNAME": "", "MTFCC": "R1011"}, "geometry": {"type": "LineString", "coordinates": [[-105.052483, 39.802605], [-105.052024, 39.802664], [-105.051715, 39.802699], [-105.051546, 39.802726], [-105.051423, 39.802753], [-105.051217, 39.802786], [-105.05105, 39.802803], [-105.050879, 39.802812], [-105.050617, 39.802815]]}}, {"type": "Feature", "properties": {"LINEARID": "110706521391", "FULLNAME": "", "MTFCC": "R1011"}, "geometry": {"type": "LineString", "coordinates": [[-105.04899, 39.80333], [-105.048698, 39.803377], [-105.048501, 39.803401], [-105.048382, 39.803415], [-105.048189, 39.803426], [-105.048067, 39.803427], [-105.047538, 39.803433], [-105.047212, 39.803436], [-105.046557, 39.803429]]}}, {"type": "Feature", "properties": {"LINEARID": "110706521347", "FULLNAME": "", "MTFCC": "R1011"}, "geometry": {"type": "LineString", "coordinates": [[-105.006809, 39.803664], [-105.006571, 39.803655]]}}, {"type": "Feature", "properties": {"LINEARID": "110706521365", "FULLNAME": "", "MTFCC": "R1011"}, "geometry": {"type": "LineString", "coordinates": [[-105.011723, 39.803341], [-105.011477, 39.803367], [-105.011, 39.803409], [-105.009444, 39.803485], [-105.009131, 39.803506], [-105.007442, 39.803597], [-105.00718, 39.803634]]}}, {"type": "Feature", "properties": {"LINEARID": "110706521335", "FULLNAME": "", "MTFCC": "R1011"}, "geometry": {"type": "LineString", "coordinates": [[-105.012803, 39.80323], [-105.012638, 39.80326], [-105.01248, 39.803266], [-105.012397, 39.803274]]}}, {"type": "Feature", "properties": {"LINEARID": "110706521338", "FULLNAME": "", "MTFCC": "R1011"}, "geometry": {"type": "LineString", "coordinates": [[-105.012397, 39.803274], [-105.012089, 39.8033], [-105.012051, 39.803307], [-105.011723, 39.803341]]}}, {"type": "Feature", "properties": {"LINEARID": "110706521340", "FULLNAME": "", "MTFCC": "R1011"}, "geometry": {"type": "LineString", "coordinates": [[-105.01124, 39.803503], [-105.010998, 39.803543], [-105.010885, 39.803557], [-105.01068, 39.803569], [-105.009747, 39.803608], [-105.009445, 39.803625]]}}, {"type": "Feature", "properties": {"LINEARID": "110706521341", "FULLNAME": "", "MTFCC": "R1011"}, "geometry": {"type": "LineString", "coordinates": [[-105.01124, 39.803503], [-105.010943, 39.803571], [-105.010779, 39.8036], [-105.010648, 39.803617], [-105.010505, 39.803627], [-105.009897, 39.803652], [-105.009075, 39.803703], [-105.007853, 39.803767], [-105.0078, 39.803767], [-105.007638, 39.80375], [-105.007515, 39.803732], [-105.007425, 39.803713], [-105.007245, 39.803692], [-105.007099, 39.803681]]}}, {"type": "Feature", "properties": {"LINEARID": "110706521343", "FULLNAME": "", "MTFCC": "R1011"}, "geometry": {"type": "LineString", "coordinates": [[-105.007099, 39.803681], [-105.006809, 39.803664]]}}, {"type": "Feature", "properties": {"LINEARID": "110706521344", "FULLNAME": "", "MTFCC": "R1011"}, "geometry": {"type": "LineString", "coordinates": [[-105.011723, 39.803341], [-105.011086, 39.803452], [-105.010943, 39.80347], [-105.010636, 39.803491], [-105.009618, 39.803538], [-105.007554, 39.803653], [-105.007374, 39.803675], [-105.007099, 39.803681]]}}, {"type": "Feature", "properties": {"LINEARID": "110706521331", "FULLNAME": "", "MTFCC": "R1011"}, "geometry": {"type": "LineString", "coordinates": [[-105.012749, 39.803286], [-105.012562, 39.803328], [-105.012464, 39.803352], [-105.012277, 39.8034]]}}, {"type": "Feature", "properties": {"LINEARID": "110706521309", "FULLNAME": "", "MTFCC": "R1011"}, "geometry": {"type": "LineString", "coordinates": [[-105.001608, 39.801036], [-105.00119, 39.800543], [-105.000929, 39.800268], [-105.000434, 39.799769], [-105.000176, 39.799498], [-104.999875, 39.79925], [-104.999707, 39.799098], [-104.999636, 39.799025], [-104.999571, 39.798944], [-104.999558, 39.798925], [-104.999449, 39.79877]]}}, {"type": "Feature", "properties": {"LINEARID": "110706521315", "FULLNAME": "", "MTFCC": "R1011"}, "geometry": {"type": "LineString", "coordinates": [[-105.012492, 39.803373], [-105.012254, 39.803473], [-105.012019, 39.803584], [-105.011876, 39.803645], [-105.011672, 39.803747], [-105.01153, 39.803828], [-105.01096, 39.804174]]}}, {"type": "Feature", "properties": {"LINEARID": "110706521317", "FULLNAME": "", "MTFCC": "R1011"}, "geometry": {"type": "LineString", "coordinates": [[-105.012749, 39.803286], [-105.012581, 39.803341], [-105.012492, 39.803373]]}}, {"type": "Feature", "properties": {"LINEARID": "110706521318", "FULLNAME": "", "MTFCC": "R1011"}, "geometry": {"type": "LineString", "coordinates": [[-105.001046, 39.800157], [-105.000975, 39.800013], [-105.000936, 39.799901], [-105.000621, 39.798749], [-105.000559, 39.798605], [-105.000451, 39.798417], [-105.000412, 39.798365], [-105.000322, 39.798247]]}}, {"type": "Feature", "properties": {"LINEARID": "110706521319", "FULLNAME": "", "MTFCC": "R1011"}, "geometry": {"type": "LineString", "coordinates": [[-105.001046, 39.800157], [-105.000872, 39.799911], [-105.00079, 39.799807], [-105.00066, 39.799672], [-105.000538, 39.799568], [-105.000042, 39.799201], [-104.999902, 39.799087], [-104.999792, 39.798988], [-104.999675, 39.798871], [-104.999651, 39.798842], [-104.999571, 39.798746], [-104.999482, 39.798617], [-104.999463, 39.798584], [-104.999405, 39.798482], [-104.99935, 39.798333], [-104.999294, 39.798123], [-104.999277, 39.798035], [-104.999254, 39.797861]]}}, {"type": "Feature", "properties": {"LINEARID": "110706521329", "FULLNAME": "", "MTFCC": "R1011"}, "geometry": {"type": "LineString", "coordinates": [[-105.012277, 39.8034], [-105.012097, 39.803456], [-105.011807, 39.803575], [-105.011709, 39.803624], [-105.010882, 39.804115]]}}, {"type": "Feature", "properties": {"LINEARID": "110706521332", "FULLNAME": "", "MTFCC": "R1011"}, "geometry": {"type": "LineString", "coordinates": [[-105.013159, 39.803195], [-105.012971, 39.803228], [-105.012818, 39.803264], [-105.012749, 39.803286]]}}, {"type": "Feature", "properties": {"LINEARID": "110706521334", "FULLNAME": "", "MTFCC": "R1011"}, "geometry": {"type": "LineString", "coordinates": [[-105.014037, 39.80316], [-105.013662, 39.803157], [-105.013343, 39.803173], [-105.013159, 39.803195]]}}, {"type": "Feature", "properties": {"LINEARID": "110706521151", "FULLNAME": "", "MTFCC": "R1011"}, "geometry": {"type": "LineString", "coordinates": [[-104.99484, 39.800957], [-104.994827, 39.802877], [-104.994826, 39.802949], [-104.994819, 39.803047], [-104.994743, 39.803298], [-104.994714, 39.803368], [-104.994664, 39.80349], [-104.994604, 39.803601], [-104.994554, 39.803681], [-104.994474, 39.803795], [-104.994391, 39.803897], [-104.994222, 39.804078], [-104.99407, 39.804218], [-104.993918, 39.80434]]}}, {"type": "Feature", "properties": {"LINEARID": "110706521732", "FULLNAME": "", "MTFCC": "R1011"}, "geometry": {"type": "LineString", "coordinates": [[-104.971434, 39.818237], [-104.971139, 39.818252], [-104.970427, 39.81832], [-104.970281, 39.818349], [-104.970151, 39.81839], [-104.970059, 39.81843], [-104.969964, 39.818479], [-104.969829, 39.818568], [-104.969722, 39.818655], [-104.969635, 39.818756], [-104.969567, 39.818888], [-104.969528, 39.819022], [-104.96948, 39.819366]]}}, {"type": "Feature", "properties": {"LINEARID": "110706521905", "FULLNAME": "", "MTFCC": "R1011"}, "geometry": {"type": "LineString", "coordinates": [[-105.034556, 39.825465], [-105.035827, 39.826089], [-105.037252, 39.826796], [-105.037758, 39.827043]]}}, {"type": "Feature", "properties": {"LINEARID": "110706521172", "FULLNAME": "", "MTFCC": "R1011"}, "geometry": {"type": "LineString", "coordinates": [[-104.994408, 39.803627], [-104.994294, 39.803831], [-104.994202, 39.803974], [-104.994146, 39.80405], [-104.994098, 39.804106], [-104.99394, 39.804256], [-104.993829, 39.804354], [-104.993617, 39.804504], [-104.993586, 39.804539]]}}, {"type": "Feature", "properties": {"LINEARID": "110706521173", "FULLNAME": "", "MTFCC": "R1011"}, "geometry": {"type": "LineString", "coordinates": [[-104.994641, 39.800683], [-104.994627, 39.801611], [-104.994623, 39.803098], [-104.994609, 39.803209], [-104.994574, 39.803299], [-104.994545, 39.803375], [-104.994488, 39.803498], [-104.994408, 39.803627]]}}, {"type": "Feature", "properties": {"LINEARID": "110707548224", "FULLNAME": "", "MTFCC": "R1011"}, "geometry": {"type": "LineString", "coordinates": [[-105.07999, 39.910358], [-105.080064, 39.910593], [-105.080077, 39.910637], [-105.080092, 39.910681], [-105.080188, 39.910983], [-105.080197, 39.911012], [-105.080367, 39.911467], [-105.080475, 39.911722], [-105.080667, 39.912113], [-105.080803, 39.912352], [-105.080945, 39.912579], [-105.081107, 39.912826], [-105.081284, 39.913073], [-105.081517, 39.913362], [-105.081547, 39.913396], [-105.081691, 39.913563], [-105.082053, 39.913941], [-105.082378, 39.914247], [-105.082428, 39.91429], [-105.082483, 39.914338], [-105.082834, 39.914623], [-105.083019, 39.914758], [-105.083311, 39.914971], [-105.083745, 39.915248], [-105.08408, 39.915445], [-105.08445, 39.91564], [-105.084854, 39.915841], [-105.085417, 39.916108], [-105.085692, 39.916234]]}}, {"type": "Feature", "properties": {"LINEARID": "110707548220", "FULLNAME": "", "MTFCC": "R1011"}, "geometry": {"type": "LineString", "coordinates": [[-105.112293, 39.933567], [-105.112311, 39.933555], [-105.112368, 39.933518], [-105.112504, 39.933426], [-105.112775, 39.933219], [-105.112874, 39.933133], [-105.112975, 39.933034], [-105.113155, 39.93283], [-105.113232, 39.932731], [-105.113301, 39.932627], [-105.113388, 39.932479], [-105.113488, 39.932275], [-105.113541, 39.932126], [-105.113566, 39.932055], [-105.113597, 39.931942], [-105.113626, 39.931805], [-105.113652, 39.931597], [-105.113657, 39.93144], [-105.11365, 39.931279], [-105.113636, 39.931163], [-105.113606, 39.930994], [-105.113579, 39.930895]]}}, {"type": "Feature", "properties": {"LINEARID": "110707445607", "FULLNAME": "", "MTFCC": "R1011"}, "geometry": {"type": "LineString", "coordinates": [[-105.123104, 39.957819], [-105.123323, 39.958404], [-105.123726, 39.959482], [-105.124119, 39.960531]]}}, {"type": "Feature", "properties": {"LINEARID": "11031808617165", "FULLNAME": "", "MTFCC": "R1011"}, "geometry": {"type": "LineString", "coordinates": [[-105.003037, 39.804105], [-105.002729, 39.80391], [-105.001964, 39.803427], [-105.001465, 39.803074], [-105.001006, 39.802694], [-105.000094, 39.801967], [-104.999619, 39.801602], [-104.999455, 39.801459], [-104.998794, 39.800905], [-104.998559, 39.800704], [-104.998288, 39.800473], [-104.998075, 39.800281]]}}, {"type": "Feature", "properties": {"LINEARID": "11031808617162", "FULLNAME": "", "MTFCC": "R1011"}, "geometry": {"type": "LineString", "coordinates": [[-104.992434, 39.805442], [-104.992857, 39.805281], [-104.993406, 39.805043], [-104.993643, 39.804921], [-104.994024, 39.804726], [-104.99421, 39.804604], [-104.994553, 39.804354], [-104.994866, 39.804095], [-104.995173, 39.803758], [-104.995244, 39.803671], [-104.995376, 39.803481], [-104.995803, 39.802985], [-104.996694, 39.801928], [-104.996943, 39.801635], [-104.996982, 39.801586], [-104.997078, 39.801467], [-104.997149, 39.80139], [-104.998075, 39.800281]]}}, {"type": "Feature", "properties": {"LINEARID": "11031808617163", "FULLNAME": "", "MTFCC": "R1011"}, "geometry": {"type": "LineString", "coordinates": [[-104.977852, 39.805497], [-104.977956, 39.805498], [-104.978092, 39.805499], [-104.980658, 39.8055], [-104.982574, 39.805501], [-104.982724, 39.805496], [-104.982951, 39.805498], [-104.983185, 39.8055], [-104.983453, 39.805504], [-104.983876, 39.805509], [-104.98636, 39.805506], [-104.987473, 39.805512], [-104.987676, 39.805515], [-104.988086, 39.805522], [-104.988672, 39.80554], [-104.989177, 39.805573], [-104.990137, 39.805647], [-104.990556, 39.80566], [-104.990799, 39.805663], [-104.990989, 39.805663], [-104.991315, 39.805647], [-104.991592, 39.805627], [-104.991779, 39.805601], [-104.992073, 39.805543], [-104.992389, 39.805459], [-104.992434, 39.805442]]}}, {"type": "Feature", "properties": {"LINEARID": "11031808616836", "FULLNAME": "", "MTFCC": "R1011"}, "geometry": {"type": "LineString", "coordinates": [[-105.012396, 39.803253], [-105.01199, 39.803253], [-105.011573, 39.803262], [-105.011408, 39.803262], [-105.010585, 39.803286], [-105.008715, 39.803388], [-105.007925, 39.803433], [-105.007798, 39.803451], [-105.007642, 39.803493], [-105.00739, 39.803579], [-105.00718, 39.803634]]}}, {"type": "Feature", "properties": {"LINEARID": "11031808623362", "FULLNAME": "", "MTFCC": "R1011"}, "geometry": {"type": "LineString", "coordinates": [[-105.002569, 39.800142], [-105.00305, 39.800425]]}}, {"type": "Feature", "properties": {"LINEARID": "11031808617167", "FULLNAME": "", "MTFCC": "R1011"}, "geometry": {"type": "LineString", "coordinates": [[-104.998075, 39.800281], [-104.99783, 39.800056], [-104.997508, 39.799698], [-104.997204, 39.799275], [-104.996925, 39.798779], [-104.996819, 39.798476], [-104.996694, 39.798174], [-104.996677, 39.798113]]}}, {"type": "Feature", "properties": {"LINEARID": "11031808617171", "FULLNAME": "", "MTFCC": "R1011"}, "geometry": {"type": "LineString", "coordinates": [[-104.998075, 39.800281], [-104.99816, 39.800179], [-104.998246, 39.800063], [-104.998299, 39.799978], [-104.998328, 39.799912]]}}, {"type": "Feature", "properties": {"LINEARID": "11031808622329", "FULLNAME": "", "MTFCC": "R1011"}, "geometry": {"type": "LineString", "coordinates": [[-105.006126, 39.803189], [-105.00582, 39.80319], [-105.005559, 39.803186], [-105.005382, 39.803173], [-105.005107, 39.803135], [-105.004925, 39.803098]]}}, {"type": "Feature", "properties": {"LINEARID": "11031808622330", "FULLNAME": "", "MTFCC": "R1011"}, "geometry": {"type": "LineString", "coordinates": [[-105.006126, 39.803189], [-105.006323, 39.803178], [-105.007681, 39.803108], [-105.007874, 39.803095], [-105.008732, 39.803052], [-105.009674, 39.803014], [-105.01083, 39.802946], [-105.012024, 39.802879], [-105.012593, 39.802922], [-105.013186, 39.802979], [-105.013627, 39.802999], [-105.013751, 39.803004], [-105.013888, 39.803008], [-105.014104, 39.803016], [-105.014272, 39.803026], [-105.014447, 39.803037], [-105.01475, 39.80306], [-105.015186, 39.803091], [-105.015362, 39.803101], [-105.015651, 39.803122], [-105.018264, 39.803336], [-105.018673, 39.803359], [-105.019285, 39.803392], [-105.020812, 39.803491], [-105.022762, 39.803608], [-105.024246, 39.803685], [-105.024302, 39.803691], [-105.024657, 39.803727], [-105.025203, 39.803786], [-105.025393, 39.803798], [-105.025968, 39.803836], [-105.02621, 39.803864], [-105.026342, 39.803883], [-105.026678, 39.803933]]}}, {"type": "Feature", "properties": {"LINEARID": "11031808622332", "FULLNAME": "", "MTFCC": "R1011"}, "geometry": {"type": "LineString", "coordinates": [[-105.000191, 39.80089], [-104.999827, 39.80055], [-104.999725, 39.800445], [-104.999601, 39.8003], [-104.999383, 39.800009], [-104.999209, 39.799752], [-104.999046, 39.799433], [-104.999029, 39.799395], [-104.998956, 39.79923], [-104.998908, 39.799104], [-104.998812, 39.79881], [-104.998781, 39.798693], [-104.998712, 39.798433], [-104.998652, 39.798022], [-104.998645, 39.797878], [-104.998646, 39.797745], [-104.998654, 39.7976], [-104.998668, 39.797396], [-104.998676, 39.797343]]}}, {"type": "Feature", "properties": {"LINEARID": "11031808622333", "FULLNAME": "", "MTFCC": "R1011"}, "geometry": {"type": "LineString", "coordinates": [[-105.004925, 39.803098], [-105.004321, 39.802981], [-105.003917, 39.8029], [-105.003786, 39.802864], [-105.003606, 39.802797], [-105.00342, 39.802712], [-105.00276, 39.802384], [-105.001011, 39.801481], [-105.000875, 39.801401], [-105.000762, 39.801326], [-105.000386, 39.801056], [-105.000191, 39.80089]]}}, {"type": "Feature", "properties": {"LINEARID": "11031808622336", "FULLNAME": "", "MTFCC": "R1011"}, "geometry": {"type": "LineString", "coordinates": [[-105.002147, 39.801671], [-105.001814, 39.801463], [-105.001734, 39.801408], [-105.001636, 39.801352], [-105.0016, 39.80133], [-105.00147, 39.801201], [-105.001186, 39.800989], [-105.001076, 39.800921], [-105.000855, 39.800755], [-105.000621, 39.800569], [-105.000499, 39.800458], [-105.000402, 39.800356], [-105.000114, 39.800026], [-105.000014, 39.799897], [-104.999899, 39.799729], [-104.999774, 39.799513], [-104.999664, 39.799277], [-104.99958, 39.799036], [-104.999539, 39.798942], [-104.999532, 39.798925], [-104.999449, 39.79877]]}}, {"type": "Feature", "properties": {"LINEARID": "11031808622337", "FULLNAME": "", "MTFCC": "R1011"}, "geometry": {"type": "LineString", "coordinates": [[-105.004925, 39.803098], [-105.004711, 39.80304], [-105.004572, 39.802994], [-105.004278, 39.802861], [-105.004193, 39.802814]]}}, {"type": "Feature", "properties": {"LINEARID": "11031808622338", "FULLNAME": "", "MTFCC": "R1011"}, "geometry": {"type": "LineString", "coordinates": [[-105.004193, 39.802814], [-105.003847, 39.802598], [-105.003617, 39.802448], [-105.003434, 39.802338], [-105.003235, 39.802225], [-105.002442, 39.801823]]}}, {"type": "Feature", "properties": {"LINEARID": "11031808622357", "FULLNAME": "", "MTFCC": "R1011"}, "geometry": {"type": "LineString", "coordinates": [[-105.003037, 39.804105], [-105.003152, 39.804178], [-105.003617, 39.804393], [-105.004535, 39.80482], [-105.0063, 39.805675], [-105.007653, 39.80633], [-105.009065, 39.807009], [-105.009264, 39.807051], [-105.009405, 39.807081], [-105.009721, 39.807093], [-105.010055, 39.807093], [-105.010347, 39.807027], [-105.010788, 39.80689], [-105.011045, 39.806777], [-105.013902, 39.805504], [-105.014058, 39.805422], [-105.014748, 39.805057], [-105.015529, 39.804503], [-105.016026, 39.804166], [-105.016455, 39.803832], [-105.016706, 39.803703], [-105.016956, 39.803605], [-105.017278, 39.80354], [-105.017601, 39.803509], [-105.017956, 39.803508], [-105.018352, 39.803539], [-105.018741, 39.803569], [-105.020207, 39.803682], [-105.021763, 39.80382], [-105.022795, 39.803873], [-105.024845, 39.804022], [-105.025205, 39.804047], [-105.025393, 39.80406], [-105.025537, 39.80407], [-105.027051, 39.8041], [-105.027372, 39.804116], [-105.027471, 39.804121], [-105.027564, 39.804126], [-105.028987, 39.804198], [-105.030651, 39.804293], [-105.031354, 39.804365], [-105.034695, 39.804573], [-105.0356, 39.804618], [-105.035815, 39.804621], [-105.039537, 39.804853], [-105.040409, 39.804917], [-105.041684, 39.804927], [-105.04303, 39.80484], [-105.043757, 39.80476], [-105.044031, 39.804717], [-105.044446, 39.804651], [-105.04624, 39.804273], [-105.049145, 39.803691], [-105.050401, 39.803412], [-105.052135, 39.803021], [-105.052656, 39.802922], [-105.052836, 39.802889]]}}, {"type": "Feature", "properties": {"LINEARID": "11031807786382", "FULLNAME": "", "MTFCC": "R1011"}, "geometry": {"type": "LineString", "coordinates": [[-105.003037, 39.804105], [-105.002831, 39.804185], [-105.002189, 39.804432], [-105.001402, 39.804653], [-105.000777, 39.804766], [-105.00027, 39.804784], [-105.000159, 39.804784], [-104.999918, 39.804784], [-104.999257, 39.804736], [-104.997149, 39.80451], [-104.996885, 39.804513], [-104.996655, 39.804516], [-104.996082, 39.804539], [-104.99595, 39.804567], [-104.995409, 39.804682], [-104.993806, 39.805099], [-104.992434, 39.805442]]}}, {"type": "Feature", "properties": {"LINEARID": "11031807786384", "FULLNAME": "", "MTFCC": "R1011"}, "geometry": {"type": "LineString", "coordinates": [[-105.006622, 39.803248], [-105.006352, 39.803303], [-105.006323, 39.803304], [-105.006042, 39.803318], [-105.00519, 39.803404], [-105.004454, 39.803568], [-105.003086, 39.804086], [-105.003037, 39.804105]]}}, {"type": "Feature", "properties": {"LINEARID": "11031807791017", "FULLNAME": "", "MTFCC": "R1011"}, "geometry": {"type": "LineString", "coordinates": [[-104.970817, 39.815385], [-104.970941, 39.815412], [-104.971097, 39.815425], [-104.971132, 39.815429], [-104.971313, 39.815444], [-104.971611, 39.81546], [-104.971711, 39.815462]]}}, {"type": "Feature", "properties": {"LINEARID": "11031808617238", "FULLNAME": "", "MTFCC": "R1011"}, "geometry": {"type": "LineString", "coordinates": [[-105.005144, 39.802857], [-105.004183, 39.802366], [-105.00406, 39.802298], [-105.003862, 39.802169], [-105.003481, 39.80197], [-105.003186, 39.80183], [-105.003045, 39.801754], [-105.002045, 39.801228], [-105.001853, 39.801084], [-105.001718, 39.800982], [-105.001595, 39.800895]]}}, {"type": "Feature", "properties": {"LINEARID": "11031808617239", "FULLNAME": "", "MTFCC": "R1011"}, "geometry": {"type": "LineString", "coordinates": [[-105.005144, 39.802857], [-105.004861, 39.802758], [-105.004618, 39.802682], [-105.004465, 39.802617], [-105.004283, 39.802532], [-105.002445, 39.801593], [-105.00226, 39.801494], [-105.002108, 39.8014], [-105.001959, 39.801289], [-105.001819, 39.801166], [-105.001761, 39.801088], [-105.001595, 39.800895]]}}, {"type": "Feature", "properties": {"LINEARID": "11031808617241", "FULLNAME": "", "MTFCC": "R1011"}, "geometry": {"type": "LineString", "coordinates": [[-105.005144, 39.802857], [-105.005372, 39.802964], [-105.005423, 39.802986], [-105.005573, 39.803037], [-105.005669, 39.803056], [-105.006074, 39.803076], [-105.005873, 39.803047], [-105.005659, 39.803008], [-105.00554, 39.802977], [-105.005469, 39.802953], [-105.005314, 39.802879], [-105.00524, 39.802838], [-105.005152, 39.802775], [-105.005012, 39.802658], [-105.004942, 39.802605], [-105.004717, 39.802456], [-105.004615, 39.802399], [-105.003226, 39.801705], [-105.002234, 39.801195], [-105.001608, 39.800851], [-105.001448, 39.800722]]}}, {"type": "Feature", "properties": {"LINEARID": "11031808604391", "FULLNAME": "", "MTFCC": "R1011"}, "geometry": {"type": "LineString", "coordinates": [[-104.970817, 39.815385], [-104.971132, 39.81538], [-104.971834, 39.81539], [-104.973335, 39.815393], [-104.973641, 39.81539], [-104.974063, 39.815357], [-104.974174, 39.815354], [-104.974576, 39.815354]]}}, {"type": "Feature", "properties": {"LINEARID": "11031808604392", "FULLNAME": "", "MTFCC": "R1011"}, "geometry": {"type": "LineString", "coordinates": [[-104.969564, 39.814432], [-104.969591, 39.814651], [-104.96962, 39.814785], [-104.969653, 39.814856], [-104.969691, 39.814914], [-104.969793, 39.815046], [-104.969854, 39.815104], [-104.969926, 39.815158], [-104.970003, 39.815209], [-104.970081, 39.815254], [-104.970199, 39.815303], [-104.970273, 39.815328], [-104.97037, 39.815357], [-104.970489, 39.815375], [-104.970649, 39.815387], [-104.970817, 39.815385]]}}, {"type": "Feature", "properties": {"LINEARID": "11031808604411", "FULLNAME": "", "MTFCC": "R1011"}, "geometry": {"type": "LineString", "coordinates": [[-105.006126, 39.803189], [-105.005203, 39.80324], [-105.004531, 39.803225], [-105.004285, 39.803222], [-105.00353, 39.803188], [-105.003233, 39.80315], [-105.002949, 39.803104], [-105.002741, 39.803059], [-105.002533, 39.803], [-105.00228, 39.802921], [-105.00203, 39.802832], [-105.001775, 39.802726], [-105.001579, 39.802637], [-105.001394, 39.802543], [-105.001189, 39.802427], [-105.00101, 39.802317], [-105.000698, 39.802094], [-105.000531, 39.801961], [-105.000406, 39.801846], [-105.000063, 39.801477], [-104.999947, 39.801318], [-104.999792, 39.801087], [-104.999724, 39.800996], [-104.999419, 39.800536], [-104.999076, 39.799865]]}}, {"type": "Feature", "properties": {"LINEARID": "11031808620625", "FULLNAME": "", "MTFCC": "R1011"}, "geometry": {"type": "LineString", "coordinates": [[-105.003869, 39.802708], [-105.004193, 39.802814]]}}, {"type": "Feature", "properties": {"LINEARID": "11031808620668", "FULLNAME": "", "MTFCC": "R1011"}, "geometry": {"type": "LineString", "coordinates": [[-105.000191, 39.80089], [-104.999938, 39.800724], [-104.9997, 39.80051], [-104.999495, 39.800334], [-104.999322, 39.800162], [-104.999076, 39.799865]]}}, {"type": "Feature", "properties": {"LINEARID": "1104469067362", "FULLNAME": "", "MTFCC": "R1011"}, "geometry": {"type": "LineString", "coordinates": [[-105.087766, 39.958032], [-105.087824, 39.957924]]}}, {"type": "Feature", "properties": {"LINEARID": "1104469067363", "FULLNAME": "", "MTFCC": "R1011"}, "geometry": {"type": "LineString", "coordinates": [[-105.087824, 39.957924], [-105.08787, 39.95784]]}}, {"type": "Feature", "properties": {"LINEARID": "1108476048406", "FULLNAME": "", "MTFCC": "R1011"}, "geometry": {"type": "LineString", "coordinates": [[-104.975661, 39.818244], [-104.973312, 39.81824], [-104.972939, 39.818239], [-104.972734, 39.818239], [-104.971434, 39.818237]]}}, {"type": "Feature", "properties": {"LINEARID": "1108476048407", "FULLNAME": "", "MTFCC": "R1011"}, "geometry": {"type": "LineString", "coordinates": [[-104.969522, 39.816938], [-104.969608, 39.817505], [-104.969638, 39.817606], [-104.969657, 39.817654], [-104.969696, 39.817726], [-104.969793, 39.817854], [-104.969859, 39.817922], [-104.969921, 39.817977], [-104.96998, 39.81802], [-104.970104, 39.818088], [-104.970233, 39.818146], [-104.970313, 39.818173], [-104.9705, 39.818217], [-104.970576, 39.818228], [-104.970712, 39.818232], [-104.97087, 39.818237], [-104.971434, 39.818237]]}}]}